{"type":"FeatureCollection","features":[{"type":"Feature","properties":{"unit":"vancouver:res:n47225948"},"geometry":{"type":"Polygon","coordinates":[[[-122.593756,45.6615036],[-122.5936933,45.6614993],[-122.5936331,45.6614865],[-122.5935776,45.6614657],[-122.5935289,45.6614378],[-122.593489,45.6614038],[-122.5934593,45.6613649],[-122.593441,45.6613228],[-122.5934348,45.661279],[-122.593441,45.6612352],[-122.5934593,45.6611931],[-122.593489,45.6611542],[-122.5935289,45.6611202],[-122.5935776,45.6610923],[-122.5936331,45.6610715],[-122.5936933,45.6610587],[-122.593756,45.6610544],[-122.5938187,45.6610587],[-122.5938789,45.6610715],[-122.5939344,45.6610923],[-122.5939831,45.6611202],[-122.594023,45.6611542],[-122.5940527,45.6611931],[-122.594071,45.6612352],[-122.5940772,45.661279],[-122.594071,45.6613228],[-122.5940527,45.6613649],[-122.594023,45.6614038],[-122.5939831,45.6614378],[-122.5939344,45.6614657],[-122.5938789,45.6614865],[-122.5938187,45.6614993],[-122.593756,45.6615036]]]}},{"type":"Feature","properties":{"unit":"vancouver:res:n47236186"},"geometry":{"type":"Polygon","coordinates":[[[-122.51183,45.6385976],[-122.5117673,45.6385933],[-122.5117071,45.6385805],[-122.5116516,45.6385597],[-122.5116029,45.6385318],[-122.511563,45.6384978],[-122.5115333,45.6384589],[-122.511515,45.6384168],[-122.5115088,45.638373],[-122.511515,45.6383292],[-122.5115333,45.6382871],[-122.511563,45.6382482],[-122.5116029,45.6382142],[-122.5116516,45.6381863],[-122.5117071,45.6381655],[-122.5117673,45.6381527],[-122.51183,45.6381484],[-122.5118927,45.6381527],[-122.5119529,45.6381655],[-122.5120084,45.6381863],[-122.5120571,45.6382142],[-122.512097,45.6382482],[-122.5121267,45.6382871],[-122.512145,45.6383292],[-122.5121512,45.638373],[-122.512145,45.6384168],[-122.5121267,45.6384589],[-122.512097,45.6384978],[-122.5120571,45.6385318],[-122.5120084,45.6385597],[-122.5119529,45.6385805],[-122.5118927,45.6385933],[-122.51183,45.6385976]]]}},{"type":"Feature","properties":{"unit":"vancouver:res:n47385371"},"geometry":{"type":"Polygon","coordinates":[[[-122.646428,45.6634306],[-122.6463653,45.6634263],[-122.6463051,45.6634135],[-122.6462496,45.6633927],[-122.6462009,45.6633648],[-122.646161,45.6633308],[-122.6461313,45.6632919],[-122.646113,45.6632498],[-122.6461068,45.663206],[-122.646113,45.6631622],[-122.6461313,45.6631201],[-122.646161,45.6630812],[-122.6462009,45.6630472],[-122.6462496,45.6630193],[-122.6463051,45.6629985],[-122.6463653,45.6629857],[-122.646428,45.6629814],[-122.6464907,45.6629857],[-122.6465509,45.6629985],[-122.6466064,45.6630193],[-122.6466551,45.6630472],[-122.646695,45.6630812],[-122.6467247,45.6631201],[-122.646743,45.6631622],[-122.6467492,45.663206],[-122.646743,45.6632498],[-122.6467247,45.6632919],[-122.646695,45.6633308],[-122.6466551,45.6633648],[-122.6466064,45.6633927],[-122.6465509,45.6634135],[-122.6464907,45.6634263],[-122.646428,45.6634306]]]}},{"type":"Feature","properties":{"unit":"vancouver:res:n1326714720"},"geometry":{"type":"Polygon","coordinates":[[[-122.471586,45.5989096],[-122.4715233,45.5989053],[-122.4714631,45.5988925],[-122.4714076,45.5988717],[-122.4713589,45.5988438],[-122.471319,45.5988098],[-122.4712893,45.5987709],[-122.471271,45.5987288],[-122.4712648,45.598685],[-122.471271,45.5986412],[-122.4712893,45.5985991],[-122.471319,45.5985602],[-122.4713589,45.5985262],[-122.4714076,45.5984983],[-122.4714631,45.5984775],[-122.4715233,45.5984647],[-122.471586,45.5984604],[-122.4716487,45.5984647],[-122.4717089,45.5984775],[-122.4717644,45.5984983],[-122.4718131,45.5985262],[-122.471853,45.5985602],[-122.4718827,45.5985991],[-122.471901,45.5986412],[-122.4719072,45.598685],[-122.471901,45.5987288],[-122.4718827,45.5987709],[-122.471853,45.5988098],[-122.4718131,45.5988438],[-122.4717644,45.5988717],[-122.4717089,45.5988925],[-122.4716487,45.5989053],[-122.471586,45.5989096]]]}},{"type":"Feature","properties":{"unit":"vancouver:res:n3784186894"},"geometry":{"type":"Polygon","coordinates":[[[-122.659628,45.6398186],[-122.6595653,45.6398143],[-122.6595051,45.6398015],[-122.6594496,45.6397807],[-122.6594009,45.6397528],[-122.659361,45.6397188],[-122.6593313,45.6396799],[-122.659313,45.6396378],[-122.6593068,45.639594],[-122.659313,45.6395502],[-122.6593313,45.6395081],[-122.659361,45.6394692],[-122.6594009,45.6394352],[-122.6594496,45.6394073],[-122.6595051,45.6393865],[-122.6595653,45.6393737],[-122.659628,45.6393694],[-122.6596907,45.6393737],[-122.6597509,45.6393865],[-122.6598064,45.6394073],[-122.6598551,45.6394352],[-122.659895,45.6394692],[-122.6599247,45.6395081],[-122.659943,45.6395502],[-122.6599492,45.639594],[-122.659943,45.6396378],[-122.6599247,45.6396799],[-122.659895,45.6397188],[-122.6598551,45.6397528],[-122.6598064,45.6397807],[-122.6597509,45.6398015],[-122.6596907,45.6398143],[-122.659628,45.6398186]]]}},{"type":"Feature","properties":{"unit":"vancouver:res:n3784186964"},"geometry":{"type":"Polygon","coordinates":[[[-122.657695,45.6419436],[-122.6576323,45.6419393],[-122.6575721,45.6419265],[-122.6575166,45.6419057],[-122.6574679,45.6418778],[-122.657428,45.6418438],[-122.6573983,45.6418049],[-122.65738,45.6417628],[-122.6573738,45.641719],[-122.65738,45.6416752],[-122.6573983,45.6416331],[-122.657428,45.6415942],[-122.6574679,45.6415602],[-122.6575166,45.6415323],[-122.6575721,45.6415115],[-122.6576323,45.6414987],[-122.657695,45.6414944],[-122.6577577,45.6414987],[-122.6578179,45.6415115],[-122.6578734,45.6415323],[-122.6579221,45.6415602],[-122.657962,45.6415942],[-122.6579917,45.6416331],[-122.65801,45.6416752],[-122.6580162,45.641719],[-122.65801,45.6417628],[-122.6579917,45.6418049],[-122.657962,45.6418438],[-122.6579221,45.6418778],[-122.6578734,45.6419057],[-122.6578179,45.6419265],[-122.6577577,45.6419393],[-122.657695,45.6419436]]]}},{"type":"Feature","properties":{"unit":"vancouver:res:n3788306130"},"geometry":{"type":"Polygon","coordinates":[[[-122.564972,45.6251046],[-122.5649093,45.6251003],[-122.5648491,45.6250875],[-122.5647936,45.6250667],[-122.5647449,45.6250388],[-122.564705,45.6250048],[-122.5646753,45.6249659],[-122.564657,45.6249238],[-122.5646508,45.62488],[-122.564657,45.6248362],[-122.5646753,45.6247941],[-122.564705,45.6247552],[-122.5647449,45.6247212],[-122.5647936,45.6246933],[-122.5648491,45.6246725],[-122.5649093,45.6246597],[-122.564972,45.6246554],[-122.5650347,45.6246597],[-122.5650949,45.6246725],[-122.5651504,45.6246933],[-122.5651991,45.6247212],[-122.565239,45.6247552],[-122.5652687,45.6247941],[-122.565287,45.6248362],[-122.5652932,45.62488],[-122.565287,45.6249238],[-122.5652687,45.6249659],[-122.565239,45.6250048],[-122.5651991,45.6250388],[-122.5651504,45.6250667],[-122.5650949,45.6250875],[-122.5650347,45.6251003],[-122.564972,45.6251046]]]}},{"type":"Feature","properties":{"unit":"vancouver:res:n4600722929"},"geometry":{"type":"Polygon","coordinates":[[[-122.676665,45.6638476],[-122.6766023,45.6638433],[-122.6765421,45.6638305],[-122.6764866,45.6638097],[-122.6764379,45.6637818],[-122.676398,45.6637478],[-122.6763683,45.6637089],[-122.67635,45.6636668],[-122.6763438,45.663623],[-122.67635,45.6635792],[-122.6763683,45.6635371],[-122.676398,45.6634982],[-122.6764379,45.6634642],[-122.6764866,45.6634363],[-122.6765421,45.6634155],[-122.6766023,45.6634027],[-122.676665,45.6633984],[-122.6767277,45.6634027],[-122.6767879,45.6634155],[-122.6768434,45.6634363],[-122.6768921,45.6634642],[-122.676932,45.6634982],[-122.6769617,45.6635371],[-122.67698,45.6635792],[-122.6769862,45.663623],[-122.67698,45.6636668],[-122.6769617,45.6637089],[-122.676932,45.6637478],[-122.6768921,45.6637818],[-122.6768434,45.6638097],[-122.6767879,45.6638305],[-122.6767277,45.6638433],[-122.676665,45.6638476]]]}},{"type":"Feature","properties":{"unit":"vancouver:art:n6505406622"},"geometry":{"type":"Polygon","coordinates":[[[-122.628929,45.6349766],[-122.6288663,45.6349723],[-122.6288061,45.6349595],[-122.6287506,45.6349387],[-122.6287019,45.6349108],[-122.628662,45.6348768],[-122.6286323,45.6348379],[-122.628614,45.6347958],[-122.6286078,45.634752],[-122.628614,45.6347082],[-122.6286323,45.6346661],[-122.628662,45.6346272],[-122.6287019,45.6345932],[-122.6287506,45.6345653],[-122.6288061,45.6345445],[-122.6288663,45.6345317],[-122.628929,45.6345274],[-122.6289917,45.6345317],[-122.6290519,45.6345445],[-122.6291074,45.6345653],[-122.6291561,45.6345932],[-122.629196,45.6346272],[-122.6292257,45.6346661],[-122.629244,45.6347082],[-122.6292502,45.634752],[-122.629244,45.6347958],[-122.6292257,45.6348379],[-122.629196,45.6348768],[-122.6291561,45.6349108],[-122.6291074,45.6349387],[-122.6290519,45.6349595],[-122.6289917,45.6349723],[-122.628929,45.6349766]]]}},{"type":"Feature","properties":{"unit":"vancouver:art:n13059332205"},"geometry":{"type":"Polygon","coordinates":[[[-122.532817,45.6655026],[-122.5327543,45.6654983],[-122.5326941,45.6654855],[-122.5326386,45.6654647],[-122.5325899,45.6654368],[-122.53255,45.6654028],[-122.5325203,45.6653639],[-122.532502,45.6653218],[-122.5324958,45.665278],[-122.532502,45.6652342],[-122.5325203,45.6651921],[-122.53255,45.6651532],[-122.5325899,45.6651192],[-122.5326386,45.6650913],[-122.5326941,45.6650705],[-122.5327543,45.6650577],[-122.532817,45.6650534],[-122.5328797,45.6650577],[-122.5329399,45.6650705],[-122.5329954,45.6650913],[-122.5330441,45.6651192],[-122.533084,45.6651532],[-122.5331137,45.6651921],[-122.533132,45.6652342],[-122.5331382,45.665278],[-122.533132,45.6653218],[-122.5331137,45.6653639],[-122.533084,45.6654028],[-122.5330441,45.6654368],[-122.5329954,45.6654647],[-122.5329399,45.6654855],[-122.5328797,45.6654983],[-122.532817,45.6655026]]]}}]}
