{"type":"FeatureCollection","features":[{"type":"Feature","geometry":{"type":"Point","coordinates":[-94.84154569206899,42.84443674877109]},"properties":{"label_id":1031,"user_id":"549187e0-redacted","pano_id":"2554351871596728","pano_source":"mapillary","label_type":"NoCurbRamp","severity":3,"tags":["no alternate route"],"description":null,"time_created":"2026-09-18T23:23:34.698Z","high_quality_user":true,"street_edge_id":60,"osm_way_id":15996662,"region_id":1,"region_name":"Laurens","street_side":"right","centerline_offset_m":-6.02931816,"correct":null,"agree_count":0,"disagree_count":0,"unsure_count":0,"validations":[],"audit_task_id":120,"mission_id":32,"image_capture_date":"2025-11","heading":294.92831730736555,"pitch":-17.51893057185041,"zoom":1.9992256987105592,"canvas_x":328,"canvas_y":328,"canvas_width":720,"canvas_height":480,"pano_x":1787,"pano_y":1831,"pano_width":5760,"pano_height":2880,"camera_heading":0.47141924241805,"camera_pitch":-1.7806832948929407,"camera_roll":2.2965184046538636,"pano_url":"https://www.mapillary.com/app/?pKey=2554351871596728&focus=photo"}},{"type":"Feature","geometry":{"type":"Point","coordinates":[-94.84729073019066,42.845616954973636]},"properties":{"label_id":1066,"user_id":"549187e0-redacted","pano_id":"1552236872621940","pano_source":"mapillary","label_type":"NoCurbRamp","severity":2,"tags":["alternate route present"],"description":null,"time_created":"2026-09-19T00:16:56.883Z","high_quality_user":true,"street_edge_id":163,"osm_way_id":15997796,"region_id":1,"region_name":"Laurens","street_side":"right","centerline_offset_m":-5.73450224,"correct":null,"agree_count":0,"disagree_count":0,"unsure_count":0,"validations":[],"audit_task_id":122,"mission_id":34,"image_capture_date":"2025-11","heading":32.666235442156676,"pitch":-17.62930833348133,"zoom":1.999999999999999,"canvas_x":401,"canvas_y":211,"canvas_width":720,"canvas_height":480,"pano_x":3362,"pano_y":1685,"pano_width":5760,"pano_height":2880,"camera_heading":5.890236963664,"camera_pitch":-0.994798510892177,"camera_roll":1.5512240388968959,"pano_url":"https://www.mapillary.com/app/?pKey=1552236872621940&focus=photo"}},{"type":"Feature","geometry":{"type":"Point","coordinates":[-94.8474605668556,42.845612263138634]},"properties":{"label_id":1067,"user_id":"549187e0-redacted","pano_id":"1552236872621940","pano_source":"mapillary","label_type":"NoCurbRamp","severity":2,"tags":["alternate route present"],"description":null,"time_created":"2026-09-19T00:17:07.593Z","high_quality_user":true,"street_edge_id":161,"osm_way_id":15997796,"region_id":1,"region_name":"Laurens","street_side":"right","centerline_offset_m":-4.75378134,"correct":null,"agree_count":0,"disagree_count":0,"unsure_count":0,"validations":[],"audit_task_id":122,"mission_id":34,"image_capture_date":"2025-11","heading":315.5099854421567,"pitch":-17.44180833348134,"zoom":1.999999999999999,"canvas_x":241,"canvas_y":175,"canvas_width":720,"canvas_height":480,"pano_x":1921,"pano_y":1634,"pano_width":5760,"pano_height":2880,"camera_heading":5.890236963664,"camera_pitch":-0.994798510892177,"camera_roll":1.5512240388968959,"pano_url":"https://www.mapillary.com/app/?pKey=1552236872621940&focus=photo"}},{"type":"Feature","geometry":{"type":"Point","coordinates":[-94.85093340546864,42.84778995199736]},"properties":{"label_id":1136,"user_id":"549187e0-redacted","pano_id":"3277689999745172","pano_source":"mapillary","label_type":"NoCurbRamp","severity":3,"tags":[],"description":null,"time_created":"2026-09-19T00:59:54.167Z","high_quality_user":true,"street_edge_id":108,"osm_way_id":15997151,"region_id":1,"region_name":"Laurens","street_side":"left","centerline_offset_m":9.88441032,"correct":null,"agree_count":0,"disagree_count":0,"unsure_count":0,"validations":[],"audit_task_id":123,"mission_id":25,"image_capture_date":"2025-11","heading":15.238936255541148,"pitch":-19.157414409042282,"zoom":1.999999999999999,"canvas_x":366,"canvas_y":264,"canvas_width":720,"canvas_height":480,"pano_x":4402,"pano_y":1777,"pano_width":5760,"pano_height":2880,"camera_heading":280.6396415266,"camera_pitch":0.03829733259614188,"camera_roll":6.238079820408661,"pano_url":"https://www.mapillary.com/app/?pKey=3277689999745172&focus=photo"}},{"type":"Feature","geometry":{"type":"Point","coordinates":[-94.84380903169523,42.84547927485036]},"properties":{"label_id":1165,"user_id":"549187e0-redacted","pano_id":"2901415920046882","pano_source":"mapillary","label_type":"NoCurbRamp","severity":2,"tags":["alternate route present"],"description":null,"time_created":"2026-09-19T15:12:45.373Z","high_quality_user":true,"street_edge_id":160,"osm_way_id":15997796,"region_id":1,"region_name":"Laurens","street_side":"left","centerline_offset_m":1.26278177,"correct":null,"agree_count":0,"disagree_count":0,"unsure_count":0,"validations":[],"audit_task_id":124,"mission_id":34,"image_capture_date":"2025-11","heading":194.83861006018583,"pitch":-26.863447512926882,"zoom":0.9999999999999997,"canvas_x":338,"canvas_y":201,"canvas_width":720,"canvas_height":480,"pano_x":1575,"pano_y":1771,"pano_width":5760,"pano_height":2880,"camera_heading":272.68087503459,"camera_pitch":-1.1961817661761172,"camera_roll":4.335696177142834,"pano_url":"https://www.mapillary.com/app/?pKey=2901415920046882&focus=photo"}},{"type":"Feature","geometry":{"type":"Point","coordinates":[-94.84380791299647,42.84554849452968]},"properties":{"label_id":1166,"user_id":"549187e0-redacted","pano_id":"2901415920046882","pano_source":"mapillary","label_type":"NoCurbRamp","severity":2,"tags":["no alternate route"],"description":null,"time_created":"2026-09-19T15:12:54.189Z","high_quality_user":true,"street_edge_id":42,"osm_way_id":15996376,"region_id":1,"region_name":"Laurens","street_side":"right","centerline_offset_m":-5.81358245,"correct":null,"agree_count":0,"disagree_count":0,"unsure_count":0,"validations":[],"audit_task_id":124,"mission_id":34,"image_capture_date":"2025-11","heading":350.4636100601857,"pitch":-34.99999999999999,"zoom":0.9999999999999997,"canvas_x":253,"canvas_y":357,"canvas_width":720,"canvas_height":480,"pano_x":3724,"pano_y":2243,"pano_width":5760,"pano_height":2880,"camera_heading":272.68087503459,"camera_pitch":-1.1961817661761172,"camera_roll":4.335696177142834,"pano_url":"https://www.mapillary.com/app/?pKey=2901415920046882&focus=photo"}},{"type":"Feature","geometry":{"type":"Point","coordinates":[-94.84384803488707,42.845547398692]},"properties":{"label_id":1168,"user_id":"549187e0-redacted","pano_id":"1158946779231548","pano_source":"mapillary","label_type":"NoCurbRamp","severity":2,"tags":["alternate route present"],"description":null,"time_created":"2026-09-19T15:13:10.535Z","high_quality_user":true,"street_edge_id":42,"osm_way_id":15996376,"region_id":1,"region_name":"Laurens","street_side":"right","centerline_offset_m":-2.53247608,"correct":null,"agree_count":0,"disagree_count":0,"unsure_count":0,"validations":[],"audit_task_id":124,"mission_id":34,"image_capture_date":"2025-11","heading":95.93122429539517,"pitch":-17.16911603467096,"zoom":0.9999999999999997,"canvas_x":250,"canvas_y":277,"canvas_width":720,"canvas_height":480,"pano_x":5509,"pano_y":1792,"pano_width":5760,"pano_height":2880,"camera_heading":273.3998605599,"camera_pitch":-1.8847857659809102,"camera_roll":2.3156869689672495,"pano_url":"https://www.mapillary.com/app/?pKey=1158946779231548&focus=photo"}},{"type":"Feature","geometry":{"type":"Point","coordinates":[-94.84386400555636,42.845487423393536]},"properties":{"label_id":1169,"user_id":"549187e0-redacted","pano_id":"1158946779231548","pano_source":"mapillary","label_type":"NoCurbRamp","severity":2,"tags":["alternate route present"],"description":null,"time_created":"2026-09-19T15:13:16.425Z","high_quality_user":true,"street_edge_id":160,"osm_way_id":15997796,"region_id":1,"region_name":"Laurens","street_side":null,"centerline_offset_m":0.47772605,"correct":null,"agree_count":0,"disagree_count":0,"unsure_count":0,"validations":[],"audit_task_id":124,"mission_id":34,"image_capture_date":"2025-11","heading":160.61872429539494,"pitch":-20.544116034671067,"zoom":0.9999999999999997,"canvas_x":240,"canvas_y":234,"canvas_width":720,"canvas_height":480,"pano_x":765,"pano_y":1737,"pano_width":5760,"pano_height":2880,"camera_heading":273.3998605599,"camera_pitch":-1.8847857659809102,"camera_roll":2.3156869689672495,"pano_url":"https://www.mapillary.com/app/?pKey=1158946779231548&focus=photo"}},{"type":"Feature","geometry":{"type":"Point","coordinates":[-94.84399434794513,42.84547200627339]},"properties":{"label_id":1172,"user_id":"549187e0-redacted","pano_id":"1158946779231548","pano_source":"mapillary","label_type":"NoCurbRamp","severity":2,"tags":[],"description":null,"time_created":"2026-09-19T15:13:47.747Z","high_quality_user":true,"street_edge_id":159,"osm_way_id":15997796,"region_id":1,"region_name":"Laurens","street_side":"right","centerline_offset_m":-2.50870486,"correct":null,"agree_count":0,"disagree_count":0,"unsure_count":0,"validations":[],"audit_task_id":124,"mission_id":34,"image_capture_date":"2025-11","heading":225.0249742953913,"pitch":-10.700366034671728,"zoom":1.999999999999999,"canvas_x":313,"canvas_y":280,"canvas_width":720,"canvas_height":480,"pano_x":2045,"pano_y":1661,"pano_width":5760,"pano_height":2880,"camera_heading":273.3998605599,"camera_pitch":-1.8847857659809102,"camera_roll":2.3156869689672495,"pano_url":"https://www.mapillary.com/app/?pKey=1158946779231548&focus=photo"}},{"type":"Feature","geometry":{"type":"Point","coordinates":[-94.84401442198649,42.84555085843853]},"properties":{"label_id":1173,"user_id":"549187e0-redacted","pano_id":"1158946779231548","pano_source":"mapillary","label_type":"NoCurbRamp","severity":2,"tags":["alternate route present"],"description":null,"time_created":"2026-09-19T15:13:52.678Z","high_quality_user":true,"street_edge_id":159,"osm_way_id":15997796,"region_id":1,"region_name":"Laurens","street_side":"left","centerline_offset_m":6.19712911,"correct":null,"agree_count":0,"disagree_count":0,"unsure_count":0,"validations":[],"audit_task_id":124,"mission_id":34,"image_capture_date":"2025-11","heading":293.55622429539096,"pitch":-13.60661603467248,"zoom":1.999999999999999,"canvas_x":213,"canvas_y":277,"canvas_width":720,"canvas_height":480,"pano_x":3011,"pano_y":1699,"pano_width":5760,"pano_height":2880,"camera_heading":273.3998605599,"camera_pitch":-1.8847857659809102,"camera_roll":2.3156869689672495,"pano_url":"https://www.mapillary.com/app/?pKey=1158946779231548&focus=photo"}},{"type":"Feature","geometry":{"type":"Point","coordinates":[-94.84613730862417,42.84460572393036]},"properties":{"label_id":1262,"user_id":"549187e0-redacted","pano_id":"827867643438895","pano_source":"mapillary","label_type":"NoCurbRamp","severity":3,"tags":[],"description":null,"time_created":"2026-09-19T23:22:03.619Z","high_quality_user":true,"street_edge_id":135,"osm_way_id":15997517,"region_id":1,"region_name":"Laurens","street_side":"left","centerline_offset_m":5.85304986,"correct":null,"agree_count":0,"disagree_count":0,"unsure_count":0,"validations":[],"audit_task_id":127,"mission_id":38,"image_capture_date":"2025-11","heading":169.42381473832427,"pitch":-22.906249999996806,"zoom":1.9999999999999984,"canvas_x":204,"canvas_y":288,"canvas_width":720,"canvas_height":480,"pano_x":5350,"pano_y":1857,"pano_width":5760,"pano_height":2880,"camera_heading":1.4675600331615,"camera_pitch":-0.6093409433011491,"camera_roll":4.304954594143694,"pano_url":"https://www.mapillary.com/app/?pKey=827867643438895&focus=photo"}},{"type":"Feature","geometry":{"type":"Point","coordinates":[-94.84396467543462,42.844430457541115]},"properties":{"label_id":1333,"user_id":"549187e0-redacted","pano_id":"1378258857643516","pano_source":"mapillary","label_type":"NoCurbRamp","severity":1,"tags":[],"description":null,"time_created":"2026-09-21T00:18:57.948Z","high_quality_user":true,"street_edge_id":101,"osm_way_id":15997149,"region_id":1,"region_name":"Laurens","street_side":"left","centerline_offset_m":3.53346743,"correct":null,"agree_count":0,"disagree_count":0,"unsure_count":0,"validations":[],"audit_task_id":131,"mission_id":40,"image_capture_date":"2025-11","heading":280.1258841745491,"pitch":-21.65741443823888,"zoom":0.999218714276648,"canvas_x":487,"canvas_y":289,"canvas_width":720,"canvas_height":480,"pano_x":4802,"pano_y":1882,"pano_width":5760,"pano_height":2880,"camera_heading":181.76362619219,"camera_pitch":-1.8098011564600094,"camera_roll":1.332711547760436,"pano_url":"https://www.mapillary.com/app/?pKey=1378258857643516&focus=photo"}},{"type":"Feature","geometry":{"type":"Point","coordinates":[-94.84400088427489,42.84441585907648]},"properties":{"label_id":1345,"user_id":"549187e0-redacted","pano_id":"1466694674405478","pano_source":"mapillary","label_type":"NoCurbRamp","severity":2,"tags":["alternate route present"],"description":null,"time_created":"2026-09-21T00:20:38.67Z","high_quality_user":true,"street_edge_id":101,"osm_way_id":15997149,"region_id":1,"region_name":"Laurens","street_side":"left","centerline_offset_m":1.84956337,"correct":null,"agree_count":0,"disagree_count":0,"unsure_count":0,"validations":[],"audit_task_id":131,"mission_id":40,"image_capture_date":"2025-11","heading":28.23541701348688,"pitch":-20.122353536746967,"zoom":1.9992187142766475,"canvas_x":342,"canvas_y":292,"canvas_width":720,"canvas_height":480,"pano_x":1831,"pano_y":1828,"pano_width":5760,"pano_height":2880,"camera_heading":92.259360032645,"camera_pitch":-1.2871142560195001,"camera_roll":5.0890729652503355,"pano_url":"https://www.mapillary.com/app/?pKey=1466694674405478&focus=photo"}},{"type":"Feature","geometry":{"type":"Point","coordinates":[-94.84494880983266,42.844389247304576]},"properties":{"label_id":1361,"user_id":"549187e0-redacted","pano_id":"1180255453535318","pano_source":"mapillary","label_type":"NoCurbRamp","severity":3,"tags":["no alternate route"],"description":null,"time_created":"2026-09-21T00:23:04.03Z","high_quality_user":true,"street_edge_id":101,"osm_way_id":15997149,"region_id":1,"region_name":"Laurens","street_side":"right","centerline_offset_m":-2.74253425,"correct":null,"agree_count":0,"disagree_count":0,"unsure_count":0,"validations":[],"audit_task_id":132,"mission_id":41,"image_capture_date":"2025-11","heading":165.90927844482405,"pitch":-18.173016542623543,"zoom":1.9999999999999978,"canvas_x":280,"canvas_y":149,"canvas_width":720,"canvas_height":480,"pano_x":5547,"pano_y":1615,"pano_width":5760,"pano_height":2880,"camera_heading":352.804402297,"camera_pitch":-0.18209817670738457,"camera_roll":4.510536033079782,"pano_url":"https://www.mapillary.com/app/?pKey=1180255453535318&focus=photo"}},{"type":"Feature","geometry":{"type":"Point","coordinates":[-94.8450676272611,42.84441451443387]},"properties":{"label_id":1362,"user_id":"549187e0-redacted","pano_id":"1180255453535318","pano_source":"mapillary","label_type":"NoCurbRamp","severity":2,"tags":["alternate route present"],"description":null,"time_created":"2026-09-21T00:23:09.069Z","high_quality_user":true,"street_edge_id":103,"osm_way_id":15997149,"region_id":1,"region_name":"Laurens","street_side":null,"centerline_offset_m":-0.15789568,"correct":null,"agree_count":0,"disagree_count":0,"unsure_count":0,"validations":[],"audit_task_id":132,"mission_id":41,"image_capture_date":"2025-11","heading":226.5655284448228,"pitch":-19.9542665426236,"zoom":1.9999999999999978,"canvas_x":183,"canvas_y":157,"canvas_width":720,"canvas_height":480,"pano_x":635,"pano_y":1648,"pano_width":5760,"pano_height":2880,"camera_heading":352.804402297,"camera_pitch":-0.18209817670738457,"camera_roll":4.510536033079782,"pano_url":"https://www.mapillary.com/app/?pKey=1180255453535318&focus=photo"}},{"type":"Feature","geometry":{"type":"Point","coordinates":[-94.84496805170802,42.845556837674586]},"properties":{"label_id":1380,"user_id":"549187e0-redacted","pano_id":"1347764100231040","pano_source":"mapillary","label_type":"NoCurbRamp","severity":3,"tags":["no alternate route"],"description":null,"time_created":"2026-09-21T00:26:22.651Z","high_quality_user":true,"street_edge_id":159,"osm_way_id":15997796,"region_id":1,"region_name":"Laurens","street_side":"left","centerline_offset_m":4.49585196,"correct":null,"agree_count":0,"disagree_count":0,"unsure_count":0,"validations":[],"audit_task_id":133,"mission_id":41,"image_capture_date":"2025-11","heading":87.79333757683821,"pitch":-15.757298432084534,"zoom":0.9999999999999984,"canvas_x":152,"canvas_y":216,"canvas_width":720,"canvas_height":480,"pano_x":1605,"pano_y":1606,"pano_width":5760,"pano_height":2880,"camera_heading":137.08106067947,"camera_pitch":-0.7622537978671805,"camera_roll":0.6972671580089124,"pano_url":"https://www.mapillary.com/app/?pKey=1347764100231040&focus=photo"}},{"type":"Feature","geometry":{"type":"Point","coordinates":[-94.84495662352846,42.84548278762995]},"properties":{"label_id":1381,"user_id":"549187e0-redacted","pano_id":"1347764100231040","pano_source":"mapillary","label_type":"NoCurbRamp","severity":3,"tags":["alternate route present"],"description":null,"time_created":"2026-09-21T00:26:27.681Z","high_quality_user":true,"street_edge_id":159,"osm_way_id":15997796,"region_id":1,"region_name":"Laurens","street_side":"right","centerline_offset_m":-3.69822251,"correct":null,"agree_count":0,"disagree_count":0,"unsure_count":0,"validations":[],"audit_task_id":133,"mission_id":41,"image_capture_date":"2025-11","heading":105.04333757683696,"pitch":-15.194798432084527,"zoom":0.9999999999999984,"canvas_x":308,"canvas_y":216,"canvas_width":720,"canvas_height":480,"pano_x":2234,"pano_y":1620,"pano_width":5760,"pano_height":2880,"camera_heading":137.08106067947,"camera_pitch":-0.7622537978671805,"camera_roll":0.6972671580089124,"pano_url":"https://www.mapillary.com/app/?pKey=1347764100231040&focus=photo"}},{"type":"Feature","geometry":{"type":"Point","coordinates":[-94.84511039431106,42.84555918750094]},"properties":{"label_id":1383,"user_id":"549187e0-redacted","pano_id":"1347764100231040","pano_source":"mapillary","label_type":"NoCurbRamp","severity":2,"tags":["alternate route present"],"description":null,"time_created":"2026-09-21T00:26:41.813Z","high_quality_user":true,"street_edge_id":162,"osm_way_id":15997796,"region_id":1,"region_name":"Laurens","street_side":"left","centerline_offset_m":4.41951633,"correct":null,"agree_count":0,"disagree_count":0,"unsure_count":0,"validations":[],"audit_task_id":133,"mission_id":41,"image_capture_date":"2025-11","heading":356.29333757684253,"pitch":-17.937500000000647,"zoom":0.9999999999999984,"canvas_x":340,"canvas_y":241,"canvas_width":720,"canvas_height":480,"pano_x":574,"pano_y":1729,"pano_width":5760,"pano_height":2880,"camera_heading":137.08106067947,"camera_pitch":-0.7622537978671805,"camera_roll":0.6972671580089124,"pano_url":"https://www.mapillary.com/app/?pKey=1347764100231040&focus=photo"}},{"type":"Feature","geometry":{"type":"Point","coordinates":[-94.84742347272787,42.84559947917453]},"properties":{"label_id":1438,"user_id":"549187e0-redacted","pano_id":"1507094280508881","pano_source":"mapillary","label_type":"NoCurbRamp","severity":2,"tags":["alternate route present"],"description":null,"time_created":"2026-09-21T17:04:27.669Z","high_quality_user":true,"street_edge_id":161,"osm_way_id":15997796,"region_id":1,"region_name":"Laurens","street_side":"right","centerline_offset_m":-3.44322611,"correct":null,"agree_count":0,"disagree_count":0,"unsure_count":0,"validations":[],"audit_task_id":136,"mission_id":43,"image_capture_date":"2025-11","heading":301.2155000721625,"pitch":-13.517152431355541,"zoom":2.9999999999999996,"canvas_x":343,"canvas_y":209,"canvas_width":720,"canvas_height":480,"pano_x":385,"pano_y":1637,"pano_width":5760,"pano_height":2880,"camera_heading":96.474176844406,"camera_pitch":-1.903547139677622,"camera_roll":3.5173003540701266,"pano_url":"https://www.mapillary.com/app/?pKey=1507094280508881&focus=photo"}},{"type":"Feature","geometry":{"type":"Point","coordinates":[-94.84729025817433,42.845598026010215]},"properties":{"label_id":1441,"user_id":"549187e0-redacted","pano_id":"1507094280508881","pano_source":"mapillary","label_type":"NoCurbRamp","severity":2,"tags":["alternate route present"],"description":null,"time_created":"2026-09-21T17:04:45.008Z","high_quality_user":true,"street_edge_id":163,"osm_way_id":15997796,"region_id":1,"region_name":"Laurens","street_side":"right","centerline_offset_m":-3.63376027,"correct":null,"agree_count":0,"disagree_count":0,"unsure_count":0,"validations":[],"audit_task_id":136,"mission_id":43,"image_capture_date":"2025-11","heading":12.84050007216183,"pitch":-28.98590243135516,"zoom":1,"canvas_x":384,"canvas_y":202,"canvas_width":720,"canvas_height":480,"pano_x":1607,"pano_y":1807,"pano_width":5760,"pano_height":2880,"camera_heading":96.474176844406,"camera_pitch":-1.903547139677622,"camera_roll":3.5173003540701266,"pano_url":"https://www.mapillary.com/app/?pKey=1507094280508881&focus=photo"}},{"type":"Feature","geometry":{"type":"Point","coordinates":[-94.84995027365527,42.84658796705051]},"properties":{"label_id":1512,"user_id":"549187e0-redacted","pano_id":"865436182583700","pano_source":"mapillary","label_type":"NoCurbRamp","severity":2,"tags":["alternate route present"],"description":null,"time_created":"2026-09-21T20:53:47.646Z","high_quality_user":true,"street_edge_id":31,"osm_way_id":15996191,"region_id":1,"region_name":"Laurens","street_side":"right","centerline_offset_m":-6.44368233,"correct":null,"agree_count":0,"disagree_count":0,"unsure_count":0,"validations":[],"audit_task_id":139,"mission_id":46,"image_capture_date":"2025-11","heading":139.35741826988487,"pitch":-15.915712571972794,"zoom":1,"canvas_x":372,"canvas_y":269,"canvas_width":720,"canvas_height":480,"pano_x":5074,"pano_y":1768,"pano_width":5760,"pano_height":2880,"camera_heading":4.249794302513,"camera_pitch":-0.0559900806020933,"camera_roll":2.1080409282740735,"pano_url":"https://www.mapillary.com/app/?pKey=865436182583700&focus=photo"}},{"type":"Feature","geometry":{"type":"Point","coordinates":[-94.85284311946721,42.845693288060495]},"properties":{"label_id":2602,"user_id":"549187e0-redacted","pano_id":"853971067099545","pano_source":"mapillary","label_type":"NoCurbRamp","severity":2,"tags":["alternate route present"],"description":null,"time_created":"2026-09-22T18:15:01.483Z","high_quality_user":true,"street_edge_id":67,"osm_way_id":15996716,"region_id":1,"region_name":"Laurens","street_side":"right","centerline_offset_m":-1.00499239,"correct":null,"agree_count":0,"disagree_count":0,"unsure_count":0,"validations":[],"audit_task_id":182,"mission_id":56,"image_capture_date":"2025-11","heading":255.15324225411177,"pitch":-19.305826116644624,"zoom":2,"canvas_x":232,"canvas_y":219,"canvas_width":720,"canvas_height":480,"pano_x":5255,"pano_y":1718,"pano_width":5760,"pano_height":2880,"camera_heading":96.155374254457,"camera_pitch":-0.9651690569661662,"camera_roll":2.4821004948986802,"pano_url":"https://www.mapillary.com/app/?pKey=853971067099545&focus=photo"}},{"type":"Feature","geometry":{"type":"Point","coordinates":[-94.85288248833626,42.84569351008759]},"properties":{"label_id":2605,"user_id":"549187e0-redacted","pano_id":"1599814574510569","pano_source":"mapillary","label_type":"NoCurbRamp","severity":2,"tags":["alternate route present"],"description":null,"time_created":"2026-09-22T18:15:21.499Z","high_quality_user":true,"street_edge_id":6,"osm_way_id":15991387,"region_id":1,"region_name":"Laurens","street_side":null,"centerline_offset_m":-0.47096518,"correct":null,"agree_count":0,"disagree_count":0,"unsure_count":0,"validations":[],"audit_task_id":182,"mission_id":56,"image_capture_date":"2025-11","heading":160.91232967886094,"pitch":-27.51712094131284,"zoom":2,"canvas_x":387,"canvas_y":272,"canvas_width":720,"canvas_height":480,"pano_x":3982,"pano_y":1921,"pano_width":5760,"pano_height":2880,"camera_heading":94.529086373583,"camera_pitch":-1.6533124769215661,"camera_roll":3.192719146993666,"pano_url":"https://www.mapillary.com/app/?pKey=1599814574510569&focus=photo"}},{"type":"Feature","geometry":{"type":"Point","coordinates":[-94.85306094285505,42.84571284577759]},"properties":{"label_id":2609,"user_id":"549187e0-redacted","pano_id":"835752385770327","pano_source":"mapillary","label_type":"NoCurbRamp","severity":2,"tags":["alternate route present"],"description":null,"time_created":"2026-09-22T18:15:48.774Z","high_quality_user":true,"street_edge_id":66,"osm_way_id":15996716,"region_id":1,"region_name":"Laurens","street_side":"left","centerline_offset_m":2.71781514,"correct":null,"agree_count":0,"disagree_count":0,"unsure_count":0,"validations":[],"audit_task_id":182,"mission_id":56,"image_capture_date":"2025-11","heading":269.1877765364045,"pitch":-18.333722392704395,"zoom":2,"canvas_x":246,"canvas_y":185,"canvas_width":720,"canvas_height":480,"pano_x":1190,"pano_y":1661,"pano_width":5760,"pano_height":2880,"camera_heading":5.6127062214745,"camera_pitch":0.7384720352346401,"camera_roll":2.624106376832899,"pano_url":"https://www.mapillary.com/app/?pKey=835752385770327&focus=photo"}},{"type":"Feature","geometry":{"type":"Point","coordinates":[-94.85289326894936,42.8456991718989]},"properties":{"label_id":2615,"user_id":"549187e0-redacted","pano_id":"835752385770327","pano_source":"mapillary","label_type":"NoCurbRamp","severity":2,"tags":["alternate route present"],"description":null,"time_created":"2026-09-22T18:16:25.965Z","high_quality_user":true,"street_edge_id":6,"osm_way_id":15991387,"region_id":1,"region_name":"Laurens","street_side":"right","centerline_offset_m":-1.36691033,"correct":null,"agree_count":0,"disagree_count":0,"unsure_count":0,"validations":[],"audit_task_id":182,"mission_id":56,"image_capture_date":"2025-11","heading":129.50027653640177,"pitch":-26.562500000002814,"zoom":1,"canvas_x":343,"canvas_y":222,"canvas_width":720,"canvas_height":480,"pano_x":4815,"pano_y":1819,"pano_width":5760,"pano_height":2880,"camera_heading":5.6127062214745,"camera_pitch":0.7384720352346401,"camera_roll":2.624106376832899,"pano_url":"https://www.mapillary.com/app/?pKey=835752385770327&focus=photo"}},{"type":"Feature","geometry":{"type":"Point","coordinates":[-94.85308815538428,42.845708067075904]},"properties":{"label_id":2618,"user_id":"549187e0-redacted","pano_id":"2638951773170246","pano_source":"mapillary","label_type":"NoCurbRamp","severity":2,"tags":["alternate route present"],"description":null,"time_created":"2026-09-22T18:16:48.293Z","high_quality_user":true,"street_edge_id":66,"osm_way_id":15996716,"region_id":1,"region_name":"Laurens","street_side":"left","centerline_offset_m":2.13169892,"correct":null,"agree_count":0,"disagree_count":0,"unsure_count":0,"validations":[],"audit_task_id":182,"mission_id":56,"image_capture_date":"2025-11","heading":258.0315265364102,"pitch":-22.53125000000368,"zoom":1,"canvas_x":253,"canvas_y":239,"canvas_width":720,"canvas_height":480,"pano_x":5204,"pano_y":1783,"pano_width":5760,"pano_height":2880,"camera_heading":95.065291553032,"camera_pitch":-1.9564501541017316,"camera_roll":2.804679434255604,"pano_url":"https://www.mapillary.com/app/?pKey=2638951773170246&focus=photo"}},{"type":"Feature","geometry":{"type":"Point","coordinates":[-94.85422982670073,42.8458485415668]},"properties":{"label_id":2647,"user_id":"549187e0-redacted","pano_id":"763289586769838","pano_source":"mapillary","label_type":"NoCurbRamp","severity":3,"tags":["no alternate route"],"description":null,"time_created":"2026-09-22T18:21:05.973Z","high_quality_user":true,"street_edge_id":98,"osm_way_id":15997046,"region_id":1,"region_name":"Laurens","street_side":"right","centerline_offset_m":-1.51796588,"correct":null,"agree_count":0,"disagree_count":0,"unsure_count":0,"validations":[],"audit_task_id":183,"mission_id":56,"image_capture_date":"2025-11","heading":294.30243368229935,"pitch":-17.017237307863113,"zoom":2,"canvas_x":312,"canvas_y":240,"canvas_width":720,"canvas_height":480,"pano_x":3111,"pano_y":1712,"pano_width":5760,"pano_height":2880,"camera_heading":275.88934051606,"camera_pitch":-2.2652037013467594,"camera_roll":0.5994381875048619,"pano_url":"https://www.mapillary.com/app/?pKey=763289586769838&focus=photo"}},{"type":"Feature","geometry":{"type":"Point","coordinates":[-94.85423875371981,42.84577364054026]},"properties":{"label_id":2648,"user_id":"549187e0-redacted","pano_id":"763289586769838","pano_source":"mapillary","label_type":"NoCurbRamp","severity":3,"tags":["no alternate route"],"description":null,"time_created":"2026-09-22T18:21:10.551Z","high_quality_user":true,"street_edge_id":98,"osm_way_id":15997046,"region_id":1,"region_name":"Laurens","street_side":null,"centerline_offset_m":-0.90965962,"correct":null,"agree_count":0,"disagree_count":0,"unsure_count":0,"validations":[],"audit_task_id":183,"mission_id":56,"image_capture_date":"2025-11","heading":235.80243368229867,"pitch":-17.485987307863844,"zoom":2,"canvas_x":343,"canvas_y":190,"canvas_width":720,"canvas_height":480,"pano_x":2216,"pano_y":1656,"pano_width":5760,"pano_height":2880,"camera_heading":275.88934051606,"camera_pitch":-2.2652037013467594,"camera_roll":0.5994381875048619,"pano_url":"https://www.mapillary.com/app/?pKey=763289586769838&focus=photo"}},{"type":"Feature","geometry":{"type":"Point","coordinates":[-94.85429483098791,42.845836649231025]},"properties":{"label_id":2651,"user_id":"549187e0-redacted","pano_id":"1301998608282242","pano_source":"mapillary","label_type":"NoCurbRamp","severity":3,"tags":["no alternate route"],"description":null,"time_created":"2026-09-22T18:21:44.434Z","high_quality_user":true,"street_edge_id":98,"osm_way_id":15997046,"region_id":1,"region_name":"Laurens","street_side":"left","centerline_offset_m":3.7758798,"correct":null,"agree_count":0,"disagree_count":0,"unsure_count":0,"validations":[],"audit_task_id":183,"mission_id":56,"image_capture_date":"2025-11","heading":46.36607272754202,"pitch":-15.77632010685154,"zoom":2,"canvas_x":363,"canvas_y":232,"canvas_width":720,"canvas_height":480,"pano_x":2191,"pano_y":1682,"pano_width":5760,"pano_height":2880,"camera_heading":89.647209069899,"camera_pitch":-0.6633057471026617,"camera_roll":3.0475344911564233,"pano_url":"https://www.mapillary.com/app/?pKey=1301998608282242&focus=photo"}},{"type":"Feature","geometry":{"type":"Point","coordinates":[-94.85428974551502,42.84576045119751]},"properties":{"label_id":2652,"user_id":"549187e0-redacted","pano_id":"1301998608282242","pano_source":"mapillary","label_type":"NoCurbRamp","severity":3,"tags":["no alternate route"],"description":null,"time_created":"2026-09-22T18:21:50.377Z","high_quality_user":true,"street_edge_id":98,"osm_way_id":15997046,"region_id":1,"region_name":"Laurens","street_side":"left","centerline_offset_m":3.23694601,"correct":null,"agree_count":0,"disagree_count":0,"unsure_count":0,"validations":[],"audit_task_id":183,"mission_id":56,"image_capture_date":"2025-11","heading":122.30357272754259,"pitch":-20.276320106851323,"zoom":2,"canvas_x":219,"canvas_y":217,"canvas_width":720,"canvas_height":480,"pano_x":3216,"pano_y":1730,"pano_width":5760,"pano_height":2880,"camera_heading":89.647209069899,"camera_pitch":-0.6633057471026617,"camera_roll":3.0475344911564233,"pano_url":"https://www.mapillary.com/app/?pKey=1301998608282242&focus=photo"}},{"type":"Feature","geometry":{"type":"Point","coordinates":[-94.85275378588992,42.84783049748227]},"properties":{"label_id":2726,"user_id":"549187e0-redacted","pano_id":"842726585005616","pano_source":"mapillary","label_type":"NoCurbRamp","severity":3,"tags":["no alternate route"],"description":null,"time_created":"2026-09-22T18:30:40.56Z","high_quality_user":true,"street_edge_id":56,"osm_way_id":15996561,"region_id":1,"region_name":"Laurens","street_side":"left","centerline_offset_m":3.55553651,"correct":null,"agree_count":0,"disagree_count":0,"unsure_count":0,"validations":[],"audit_task_id":186,"mission_id":59,"image_capture_date":"2025-11","heading":58.23285545143278,"pitch":-19.062974598719165,"zoom":2,"canvas_x":298,"canvas_y":251,"canvas_width":720,"canvas_height":480,"pano_x":672,"pano_y":1758,"pano_width":5760,"pano_height":2880,"camera_heading":191.00626475883,"camera_pitch":-2.832997868853918,"camera_roll":4.058743396432187,"pano_url":"https://www.mapillary.com/app/?pKey=842726585005616&focus=photo"}},{"type":"Feature","geometry":{"type":"Point","coordinates":[-94.8527401237977,42.847859830956956]},"properties":{"label_id":2729,"user_id":"549187e0-redacted","pano_id":"877580328035563","pano_source":"mapillary","label_type":"NoCurbRamp","severity":3,"tags":[],"description":null,"time_created":"2026-09-22T18:31:13.038Z","high_quality_user":true,"street_edge_id":56,"osm_way_id":15996561,"region_id":1,"region_name":"Laurens","street_side":"left","centerline_offset_m":4.57219741,"correct":null,"agree_count":0,"disagree_count":0,"unsure_count":0,"validations":[],"audit_task_id":186,"mission_id":59,"image_capture_date":"2025-11","heading":96.63179672936462,"pitch":-18.4062500000008,"zoom":2,"canvas_x":391,"canvas_y":303,"canvas_width":720,"canvas_height":480,"pano_x":1591,"pano_y":1814,"pano_width":5760,"pano_height":2880,"camera_heading":179.88179672937,"camera_pitch":-1.8514203058760044,"camera_roll":2.5481992703557252,"pano_url":"https://www.mapillary.com/app/?pKey=877580328035563&focus=photo"}},{"type":"Feature","geometry":{"type":"Point","coordinates":[-94.85182542957774,42.85350137465629]},"properties":{"label_id":2815,"user_id":"18b26a38-redacted","pano_id":"1118974113384973","pano_source":"mapillary","label_type":"NoCurbRamp","severity":1,"tags":["alternate route present"],"description":null,"time_created":"2026-09-24T22:50:59.634Z","high_quality_user":true,"street_edge_id":157,"osm_way_id":15997676,"region_id":1,"region_name":"Laurens","street_side":"right","centerline_offset_m":-3.78519301,"correct":null,"agree_count":0,"disagree_count":0,"unsure_count":0,"validations":[],"audit_task_id":192,"mission_id":2,"image_capture_date":"2025-11","heading":237.4288419640502,"pitch":-29.191116441016018,"zoom":0.9999999999999992,"canvas_x":451,"canvas_y":199,"canvas_width":720,"canvas_height":480,"pano_x":196,"pano_y":1792,"pano_width":5760,"pano_height":2880,"camera_heading":60.329536966575,"camera_pitch":-4.771580848586632,"camera_roll":0.02527336714893781,"pano_url":"https://www.mapillary.com/app/?pKey=1118974113384973&focus=photo"}},{"type":"Feature","geometry":{"type":"Point","coordinates":[-94.85145752974599,42.852007924131335]},"properties":{"label_id":2830,"user_id":"18b26a38-redacted","pano_id":"2018969712232383","pano_source":"mapillary","label_type":"NoCurbRamp","severity":3,"tags":["no alternate route"],"description":null,"time_created":"2026-09-24T22:54:55.904Z","high_quality_user":true,"street_edge_id":138,"osm_way_id":15997533,"region_id":1,"region_name":"Laurens","street_side":"left","centerline_offset_m":6.21709132,"correct":null,"agree_count":0,"disagree_count":0,"unsure_count":0,"validations":[],"audit_task_id":193,"mission_id":87,"image_capture_date":"2025-11","heading":72.75515989526684,"pitch":-16.049030579838426,"zoom":2,"canvas_x":387,"canvas_y":234,"canvas_width":720,"canvas_height":480,"pano_x":5479,"pano_y":1689,"pano_width":5760,"pano_height":2880,"camera_heading":272.51225315224,"camera_pitch":-2.5244284795881664,"camera_roll":3.1706751131291875,"pano_url":"https://www.mapillary.com/app/?pKey=2018969712232383&focus=photo"}},{"type":"Feature","geometry":{"type":"Point","coordinates":[-94.85117651728413,42.85199757320423]},"properties":{"label_id":2834,"user_id":"18b26a38-redacted","pano_id":"1986090458623957","pano_source":"mapillary","label_type":"NoCurbRamp","severity":3,"tags":["no alternate route"],"description":null,"time_created":"2026-09-24T22:55:41Z","high_quality_user":true,"street_edge_id":139,"osm_way_id":15997533,"region_id":1,"region_name":"Laurens","street_side":"right","centerline_offset_m":-5.65075918,"correct":null,"agree_count":0,"disagree_count":0,"unsure_count":0,"validations":[],"audit_task_id":194,"mission_id":87,"image_capture_date":"2025-11","heading":69.93906656050399,"pitch":-30.406249999999876,"zoom":1.9999999999999984,"canvas_x":349,"canvas_y":204,"canvas_width":720,"canvas_height":480,"pano_x":5364,"pano_y":1881,"pano_width":5760,"pano_height":2880,"camera_heading":273.68472080424,"camera_pitch":-2.5141853458204717,"camera_roll":-1.4815543066643406,"pano_url":"https://www.mapillary.com/app/?pKey=1986090458623957&focus=photo"}},{"type":"Feature","geometry":{"type":"Point","coordinates":[-94.85139605692248,42.85087741280593]},"properties":{"label_id":2849,"user_id":"549187e0-redacted","pano_id":"1849132205688148","pano_source":"mapillary","label_type":"NoCurbRamp","severity":3,"tags":["alternate route present"],"description":null,"time_created":"2026-09-24T23:22:56.463Z","high_quality_user":true,"street_edge_id":78,"osm_way_id":15996828,"region_id":1,"region_name":"Laurens","street_side":"right","centerline_offset_m":-7.5337432,"correct":null,"agree_count":0,"disagree_count":0,"unsure_count":0,"validations":[],"audit_task_id":195,"mission_id":83,"image_capture_date":"2025-11","heading":276.0802657460458,"pitch":-18.855489875434518,"zoom":1.7480027708263088,"canvas_x":336,"canvas_y":223,"canvas_width":720,"canvas_height":408,"pano_x":1452,"pano_y":1771,"pano_width":5760,"pano_height":2880,"camera_heading":2.860851623598,"camera_pitch":1.811134668692203,"camera_roll":3.0384239974941556,"pano_url":"https://www.mapillary.com/app/?pKey=1849132205688148&focus=photo"}},{"type":"Feature","geometry":{"type":"Point","coordinates":[-94.85133039571056,42.85089188112981]},"properties":{"label_id":2850,"user_id":"549187e0-redacted","pano_id":"2402108090210008","pano_source":"mapillary","label_type":"NoCurbRamp","severity":2,"tags":["alternate route present"],"description":null,"time_created":"2026-09-24T23:23:20.917Z","high_quality_user":true,"street_edge_id":168,"osm_way_id":1474028772,"region_id":1,"region_name":"Laurens","street_side":"left","centerline_offset_m":2.77066943,"correct":null,"agree_count":0,"disagree_count":0,"unsure_count":0,"validations":[],"audit_task_id":195,"mission_id":83,"image_capture_date":"2025-11","heading":110.12604774464575,"pitch":-18.93877990461018,"zoom":1.7480027708263088,"canvas_x":440,"canvas_y":215,"canvas_width":720,"canvas_height":408,"pano_x":1824,"pano_y":1757,"pano_width":5760,"pano_height":2880,"camera_heading":184.26389228913,"camera_pitch":-0.91456185238092,"camera_roll":3.068769946328499,"pano_url":"https://www.mapillary.com/app/?pKey=2402108090210008&focus=photo"}},{"type":"Feature","geometry":{"type":"Point","coordinates":[-94.85143079365422,42.850878230105955]},"properties":{"label_id":2859,"user_id":"549187e0-redacted","pano_id":"2402108090210008","pano_source":"mapillary","label_type":"NoCurbRamp","severity":2,"tags":["no alternate route"],"description":null,"time_created":"2026-09-24T23:29:28.021Z","high_quality_user":true,"street_edge_id":78,"osm_way_id":15996828,"region_id":1,"region_name":"Laurens","street_side":"right","centerline_offset_m":-7.52477431,"correct":null,"agree_count":0,"disagree_count":0,"unsure_count":0,"validations":[],"audit_task_id":195,"mission_id":83,"image_capture_date":"2025-11","heading":230.39870120280443,"pitch":-26.68194034873749,"zoom":0.9999999999999989,"canvas_x":227,"canvas_y":199,"canvas_width":720,"canvas_height":408,"pano_x":3262,"pano_y":1827,"pano_width":5760,"pano_height":2880,"camera_heading":184.26389228913,"camera_pitch":-0.91456185238092,"camera_roll":3.068769946328499,"pano_url":"https://www.mapillary.com/app/?pKey=2402108090210008&focus=photo"}},{"type":"Feature","geometry":{"type":"Point","coordinates":[-94.8486274150989,42.849837462336225]},"properties":{"label_id":2955,"user_id":"549187e0-redacted","pano_id":"727365343107406","pano_source":"mapillary","label_type":"NoCurbRamp","severity":1,"tags":["alternate route present"],"description":null,"time_created":"2026-09-25T14:17:55.76Z","high_quality_user":true,"street_edge_id":45,"osm_way_id":15996421,"region_id":1,"region_name":"Laurens","street_side":"right","centerline_offset_m":-2.93768852,"correct":null,"agree_count":0,"disagree_count":0,"unsure_count":0,"validations":[],"audit_task_id":199,"mission_id":89,"image_capture_date":"2025-11","heading":186.04720585076257,"pitch":-31.33668010611408,"zoom":0.9999999999999977,"canvas_x":275,"canvas_y":246,"canvas_width":720,"canvas_height":423,"pano_x":4130,"pano_y":2011,"pano_width":5760,"pano_height":2880,"camera_heading":91.620012569002,"camera_pitch":0.5770345397375148,"camera_roll":2.7119797389962574,"pano_url":"https://www.mapillary.com/app/?pKey=727365343107406&focus=photo"}},{"type":"Feature","geometry":{"type":"Point","coordinates":[-94.84880658793941,42.84983918699811]},"properties":{"label_id":2958,"user_id":"549187e0-redacted","pano_id":"727365343107406","pano_source":"mapillary","label_type":"NoCurbRamp","severity":2,"tags":["alternate route present"],"description":null,"time_created":"2026-09-25T14:18:14.214Z","high_quality_user":true,"street_edge_id":128,"osm_way_id":15997383,"region_id":1,"region_name":"Laurens","street_side":"right","centerline_offset_m":-4.58653977,"correct":null,"agree_count":0,"disagree_count":0,"unsure_count":0,"validations":[],"audit_task_id":199,"mission_id":89,"image_capture_date":"2025-11","heading":261.14095585076507,"pitch":-11.836680106113867,"zoom":1.9999999999999978,"canvas_x":319,"canvas_y":174,"canvas_width":720,"canvas_height":423,"pano_x":5540,"pano_y":1582,"pano_width":5760,"pano_height":2880,"camera_heading":91.620012569002,"camera_pitch":0.5770345397375148,"camera_roll":2.7119797389962574,"pano_url":"https://www.mapillary.com/app/?pKey=727365343107406&focus=photo"}},{"type":"Feature","geometry":{"type":"Point","coordinates":[-94.84853684464177,42.850818708528784]},"properties":{"label_id":2987,"user_id":"549187e0-redacted","pano_id":"1415792299889392","pano_source":"mapillary","label_type":"NoCurbRamp","severity":2,"tags":["alternate route present"],"description":null,"time_created":"2026-09-26T13:51:13.066Z","high_quality_user":true,"street_edge_id":46,"osm_way_id":15996421,"region_id":1,"region_name":"Laurens","street_side":null,"centerline_offset_m":0.75444845,"correct":null,"agree_count":0,"disagree_count":0,"unsure_count":0,"validations":[],"audit_task_id":201,"mission_id":106,"image_capture_date":"2025-11","heading":111.08363277714898,"pitch":-16.75775453638026,"zoom":0.9999999999999997,"canvas_x":308,"canvas_y":163,"canvas_width":720,"canvas_height":367,"pano_x":2993,"pano_y":1654,"pano_width":5760,"pano_height":2880,"camera_heading":95.645737314052,"camera_pitch":-3.578171904046199,"camera_roll":1.6939694721415626,"pano_url":"https://www.mapillary.com/app/?pKey=1415792299889392&focus=photo"}},{"type":"Feature","geometry":{"type":"Point","coordinates":[-94.84860659980225,42.850943159140016]},"properties":{"label_id":2988,"user_id":"549187e0-redacted","pano_id":"1415792299889392","pano_source":"mapillary","label_type":"NoCurbRamp","severity":2,"tags":["alternate route present"],"description":null,"time_created":"2026-09-26T13:51:18.729Z","high_quality_user":true,"street_edge_id":61,"osm_way_id":15996665,"region_id":1,"region_name":"Laurens","street_side":"left","centerline_offset_m":5.35660809,"correct":null,"agree_count":0,"disagree_count":0,"unsure_count":0,"validations":[],"audit_task_id":201,"mission_id":106,"image_capture_date":"2025-11","heading":16.958632777146704,"pitch":-16.195254536379895,"zoom":0.9999999999999997,"canvas_x":370,"canvas_y":149,"canvas_width":720,"canvas_height":367,"pano_x":1647,"pano_y":1612,"pano_width":5760,"pano_height":2880,"camera_heading":95.645737314052,"camera_pitch":-3.578171904046199,"camera_roll":1.6939694721415626,"pano_url":"https://www.mapillary.com/app/?pKey=1415792299889392&focus=photo"}},{"type":"Feature","geometry":{"type":"Point","coordinates":[-94.8487009314029,42.850918721884746]},"properties":{"label_id":2989,"user_id":"549187e0-redacted","pano_id":"1415792299889392","pano_source":"mapillary","label_type":"NoCurbRamp","severity":2,"tags":["alternate route present"],"description":null,"time_created":"2026-09-26T13:51:25.551Z","high_quality_user":true,"street_edge_id":61,"osm_way_id":15996665,"region_id":1,"region_name":"Laurens","street_side":"left","centerline_offset_m":2.49039245,"correct":null,"agree_count":0,"disagree_count":0,"unsure_count":0,"validations":[],"audit_task_id":201,"mission_id":106,"image_capture_date":"2025-11","heading":332.14613277714705,"pitch":-15.25775453637953,"zoom":0.9999999999999997,"canvas_x":391,"canvas_y":173,"canvas_width":720,"canvas_height":367,"pano_x":985,"pano_y":1657,"pano_width":5760,"pano_height":2880,"camera_heading":95.645737314052,"camera_pitch":-3.578171904046199,"camera_roll":1.6939694721415626,"pano_url":"https://www.mapillary.com/app/?pKey=1415792299889392&focus=photo"}},{"type":"Feature","geometry":{"type":"Point","coordinates":[-94.84871146412378,42.85081383268156]},"properties":{"label_id":2990,"user_id":"549187e0-redacted","pano_id":"1415792299889392","pano_source":"mapillary","label_type":"NoCurbRamp","severity":2,"tags":["alternate route present"],"description":null,"time_created":"2026-09-26T13:51:31.065Z","high_quality_user":true,"street_edge_id":61,"osm_way_id":15996665,"region_id":1,"region_name":"Laurens","street_side":"right","centerline_offset_m":-9.17651518,"correct":null,"agree_count":0,"disagree_count":0,"unsure_count":0,"validations":[],"audit_task_id":201,"mission_id":106,"image_capture_date":"2025-11","heading":249.6461327771508,"pitch":-22.570254536379373,"zoom":0.9999999999999997,"canvas_x":302,"canvas_y":192,"canvas_width":720,"canvas_height":367,"pano_x":5185,"pano_y":1818,"pano_width":5760,"pano_height":2880,"camera_heading":95.645737314052,"camera_pitch":-3.578171904046199,"camera_roll":1.6939694721415626,"pano_url":"https://www.mapillary.com/app/?pKey=1415792299889392&focus=photo"}},{"type":"Feature","geometry":{"type":"Point","coordinates":[-94.84730113684664,42.851827292332366]},"properties":{"label_id":3034,"user_id":"549187e0-redacted","pano_id":"1372773481219747","pano_source":"mapillary","label_type":"NoCurbRamp","severity":2,"tags":["no alternate route"],"description":null,"time_created":"2026-09-26T17:15:32.223Z","high_quality_user":true,"street_edge_id":164,"osm_way_id":15997804,"region_id":1,"region_name":"Laurens","street_side":"left","centerline_offset_m":4.03240446,"correct":null,"agree_count":0,"disagree_count":0,"unsure_count":0,"validations":[],"audit_task_id":203,"mission_id":107,"image_capture_date":"2025-11","heading":324.60388055630574,"pitch":-17.360466797132847,"zoom":0.7480027708263087,"canvas_x":234,"canvas_y":233,"canvas_width":720,"canvas_height":408,"pano_x":5015,"pano_y":1776,"pano_width":5760,"pano_height":2880,"camera_heading":167.31356811493,"camera_pitch":1.1166636990673982,"camera_roll":-0.00476128604392963,"pano_url":"https://www.mapillary.com/app/?pKey=1372773481219747&focus=photo"}},{"type":"Feature","geometry":{"type":"Point","coordinates":[-94.84716747680686,42.85179789193909]},"properties":{"label_id":3035,"user_id":"549187e0-redacted","pano_id":"1372773481219747","pano_source":"mapillary","label_type":"NoCurbRamp","severity":2,"tags":["no alternate route"],"description":null,"time_created":"2026-09-26T17:15:41.341Z","high_quality_user":true,"street_edge_id":100,"osm_way_id":15997048,"region_id":1,"region_name":"Laurens","street_side":"right","centerline_offset_m":-2.47494629,"correct":null,"agree_count":0,"disagree_count":0,"unsure_count":0,"validations":[],"audit_task_id":203,"mission_id":107,"image_capture_date":"2025-11","heading":94.33259942802488,"pitch":-22.719312327117724,"zoom":0.7480027708263087,"canvas_x":346,"canvas_y":203,"canvas_width":720,"canvas_height":408,"pano_x":1667,"pano_y":1800,"pano_width":5760,"pano_height":2880,"camera_heading":167.31356811493,"camera_pitch":1.1166636990673982,"camera_roll":-0.00476128604392963,"pano_url":"https://www.mapillary.com/app/?pKey=1372773481219747&focus=photo"}},{"type":"Feature","geometry":{"type":"Point","coordinates":[-94.84713096529133,42.85180338985389]},"properties":{"label_id":3037,"user_id":"549187e0-redacted","pano_id":"850542724131378","pano_source":"mapillary","label_type":"NoCurbRamp","severity":2,"tags":["alternate route present"],"description":null,"time_created":"2026-09-26T17:16:06.009Z","high_quality_user":true,"street_edge_id":100,"osm_way_id":15997048,"region_id":1,"region_name":"Laurens","street_side":null,"centerline_offset_m":0.49227352,"correct":null,"agree_count":0,"disagree_count":0,"unsure_count":0,"validations":[],"audit_task_id":203,"mission_id":107,"image_capture_date":"2025-11","heading":217.59318260995872,"pitch":-29.64115447001536,"zoom":0.7480027708263087,"canvas_x":229,"canvas_y":222,"canvas_width":720,"canvas_height":408,"pano_x":4895,"pano_y":1921,"pano_width":5760,"pano_height":2880,"camera_heading":64.746571333156,"camera_pitch":-2.0933139492816504,"camera_roll":-0.7126451026206783,"pano_url":"https://www.mapillary.com/app/?pKey=850542724131378&focus=photo"}},{"type":"Feature","geometry":{"type":"Point","coordinates":[-94.84727838719976,42.85183541323057]},"properties":{"label_id":3039,"user_id":"549187e0-redacted","pano_id":"850542724131378","pano_source":"mapillary","label_type":"NoCurbRamp","severity":1,"tags":["alternate route present"],"description":null,"time_created":"2026-09-26T17:16:19.936Z","high_quality_user":true,"street_edge_id":164,"osm_way_id":15997804,"region_id":1,"region_name":"Laurens","street_side":"left","centerline_offset_m":3.0607192,"correct":null,"agree_count":0,"disagree_count":0,"unsure_count":0,"validations":[],"audit_task_id":203,"mission_id":107,"image_capture_date":"2025-11","heading":277.5452669766654,"pitch":-11.220122960692372,"zoom":1.7480027708263088,"canvas_x":263,"canvas_y":196,"canvas_width":720,"canvas_height":408,"pano_x":374,"pano_y":1605,"pano_width":5760,"pano_height":2880,"camera_heading":64.746571333156,"camera_pitch":-2.0933139492816504,"camera_roll":-0.7126451026206783,"pano_url":"https://www.mapillary.com/app/?pKey=850542724131378&focus=photo"}},{"type":"Feature","geometry":{"type":"Point","coordinates":[-94.84724066221524,42.85190416820042]},"properties":{"label_id":3040,"user_id":"549187e0-redacted","pano_id":"850542724131378","pano_source":"mapillary","label_type":"NoCurbRamp","severity":3,"tags":["alternate route present"],"description":null,"time_created":"2026-09-26T17:16:39.14Z","high_quality_user":true,"street_edge_id":164,"osm_way_id":15997804,"region_id":1,"region_name":"Laurens","street_side":"right","centerline_offset_m":-4.68819455,"correct":null,"agree_count":0,"disagree_count":0,"unsure_count":0,"validations":[],"audit_task_id":203,"mission_id":107,"image_capture_date":"2025-11","heading":311.7079072303202,"pitch":-13.006404804020736,"zoom":1.7480027708263088,"canvas_x":309,"canvas_y":183,"canvas_width":720,"canvas_height":408,"pano_x":992,"pano_y":1615,"pano_width":5760,"pano_height":2880,"camera_heading":64.746571333156,"camera_pitch":-2.0933139492816504,"camera_roll":-0.7126451026206783,"pano_url":"https://www.mapillary.com/app/?pKey=850542724131378&focus=photo"}},{"type":"Feature","geometry":{"type":"Point","coordinates":[-94.84707752655864,42.85189895774057]},"properties":{"label_id":3041,"user_id":"549187e0-redacted","pano_id":"850542724131378","pano_source":"mapillary","label_type":"NoCurbRamp","severity":3,"tags":["no alternate route"],"description":null,"time_created":"2026-09-26T17:17:10.997Z","high_quality_user":true,"street_edge_id":166,"osm_way_id":15997804,"region_id":1,"region_name":"Laurens","street_side":"left","centerline_offset_m":4.52499154,"correct":null,"agree_count":0,"disagree_count":0,"unsure_count":0,"validations":[],"audit_task_id":203,"mission_id":107,"image_capture_date":"2025-11","heading":32.87208848655109,"pitch":-15.79747018422037,"zoom":1.7480027708263088,"canvas_x":316,"canvas_y":219,"canvas_width":720,"canvas_height":408,"pano_x":2299,"pano_y":1715,"pano_width":5760,"pano_height":2880,"camera_heading":64.746571333156,"camera_pitch":-2.0933139492816504,"camera_roll":-0.7126451026206783,"pano_url":"https://www.mapillary.com/app/?pKey=850542724131378&focus=photo"}},{"type":"Feature","geometry":{"type":"Point","coordinates":[-94.84867534273717,42.851887363407876]},"properties":{"label_id":3056,"user_id":"549187e0-redacted","pano_id":"861438272999457","pano_source":"mapillary","label_type":"NoCurbRamp","severity":2,"tags":["alternate route present"],"description":null,"time_created":"2026-09-26T17:43:57.316Z","high_quality_user":true,"street_edge_id":137,"osm_way_id":15997533,"region_id":1,"region_name":"Laurens","street_side":"right","centerline_offset_m":-1.42607349,"correct":null,"agree_count":0,"disagree_count":0,"unsure_count":0,"validations":[],"audit_task_id":205,"mission_id":108,"image_capture_date":"2025-11","heading":313.82471559583587,"pitch":-17.380842055801196,"zoom":1.7525027708263068,"canvas_x":339,"canvas_y":168,"canvas_width":720,"canvas_height":408,"pano_x":584,"pano_y":1663,"pano_width":5760,"pano_height":2880,"camera_heading":95.235725325495,"camera_pitch":1.6476298032256649,"camera_roll":3.156477407935597,"pano_url":"https://www.mapillary.com/app/?pKey=861438272999457&focus=photo"}},{"type":"Feature","geometry":{"type":"Point","coordinates":[-94.84378227401788,42.844456819366584]},"properties":{"label_id":3104,"user_id":"549187e0-redacted","pano_id":"1373721267752346","pano_source":"mapillary","label_type":"NoCurbRamp","severity":2,"tags":["alternate route present"],"description":null,"time_created":"2026-09-30T13:56:03.551Z","high_quality_user":true,"street_edge_id":44,"osm_way_id":15996376,"region_id":1,"region_name":"Laurens","street_side":"left","centerline_offset_m":6.35822942,"correct":null,"agree_count":0,"disagree_count":0,"unsure_count":0,"validations":[],"audit_task_id":213,"mission_id":115,"image_capture_date":"2025-11","heading":74.60005622720018,"pitch":-31.812499999999076,"zoom":1,"canvas_x":268,"canvas_y":236,"canvas_width":720,"canvas_height":480,"pano_x":5325,"pano_y":1922,"pano_width":5760,"pano_height":2880,"camera_heading":265.21864244941,"camera_pitch":-0.8225705426210926,"camera_roll":1.2178782448676586,"pano_url":"https://www.mapillary.com/app/?pKey=1373721267752346&focus=photo"}},{"type":"Feature","geometry":{"type":"Point","coordinates":[-94.84396309503039,42.84444254194961]},"properties":{"label_id":3109,"user_id":"549187e0-redacted","pano_id":"1373721267752346","pano_source":"mapillary","label_type":"NoCurbRamp","severity":2,"tags":["alternate route present"],"description":null,"time_created":"2026-09-30T13:56:24Z","high_quality_user":true,"street_edge_id":101,"osm_way_id":15997149,"region_id":1,"region_name":"Laurens","street_side":"left","centerline_offset_m":4.8783504,"correct":null,"agree_count":0,"disagree_count":0,"unsure_count":0,"validations":[],"audit_task_id":213,"mission_id":115,"image_capture_date":"2025-11","heading":269.41255622718836,"pitch":-19.812500000002917,"zoom":2,"canvas_x":402,"canvas_y":137,"canvas_width":720,"canvas_height":480,"pano_x":3001,"pano_y":1627,"pano_width":5760,"pano_height":2880,"camera_heading":265.21864244941,"camera_pitch":-0.8225705426210926,"camera_roll":1.2178782448676586,"pano_url":"https://www.mapillary.com/app/?pKey=1373721267752346&focus=photo"}},{"type":"Feature","geometry":{"type":"Point","coordinates":[-94.8438789051364,42.84547118664312]},"properties":{"label_id":3132,"user_id":"549187e0-redacted","pano_id":"1519555342687049","pano_source":"mapillary","label_type":"NoCurbRamp","severity":2,"tags":["no alternate route"],"description":null,"time_created":"2026-09-30T13:59:30.238Z","high_quality_user":true,"street_edge_id":44,"osm_way_id":15996376,"region_id":1,"region_name":"Laurens","street_side":null,"centerline_offset_m":-0.10281971,"correct":null,"agree_count":0,"disagree_count":0,"unsure_count":0,"validations":[],"audit_task_id":214,"mission_id":116,"image_capture_date":"2025-11","heading":39.73098478714246,"pitch":-16.906250000000643,"zoom":2,"canvas_x":298,"canvas_y":159,"canvas_width":720,"canvas_height":480,"pano_x":564,"pano_y":1607,"pano_width":5760,"pano_height":2880,"camera_heading":179.5161461123,"camera_pitch":-2.10962326056645,"camera_roll":1.704248754568672,"pano_url":"https://www.mapillary.com/app/?pKey=1519555342687049&focus=photo"}},{"type":"Feature","geometry":{"type":"Point","coordinates":[-94.84387441671814,42.845420238903564]},"properties":{"label_id":3133,"user_id":"549187e0-redacted","pano_id":"1519555342687049","pano_source":"mapillary","label_type":"NoCurbRamp","severity":2,"tags":["no alternate route"],"description":null,"time_created":"2026-09-30T13:59:37.537Z","high_quality_user":true,"street_edge_id":44,"osm_way_id":15996376,"region_id":1,"region_name":"Laurens","street_side":null,"centerline_offset_m":0.19347417,"correct":null,"agree_count":0,"disagree_count":0,"unsure_count":0,"validations":[],"audit_task_id":214,"mission_id":116,"image_capture_date":"2025-11","heading":48.168484787142916,"pitch":-17.656250000000842,"zoom":2,"canvas_x":483,"canvas_y":206,"canvas_width":720,"canvas_height":480,"pano_x":938,"pano_y":1676,"pano_width":5760,"pano_height":2880,"camera_heading":179.5161461123,"camera_pitch":-2.10962326056645,"camera_roll":1.704248754568672,"pano_url":"https://www.mapillary.com/app/?pKey=1519555342687049&focus=photo"}},{"type":"Feature","geometry":{"type":"Point","coordinates":[-94.84402554484754,42.845495141156235]},"properties":{"label_id":3134,"user_id":"549187e0-redacted","pano_id":"1519555342687049","pano_source":"mapillary","label_type":"NoCurbRamp","severity":2,"tags":["no alternate route"],"description":null,"time_created":"2026-09-30T13:59:44.87Z","high_quality_user":true,"street_edge_id":159,"osm_way_id":15997796,"region_id":1,"region_name":"Laurens","street_side":null,"centerline_offset_m":-0.01723017,"correct":null,"agree_count":0,"disagree_count":0,"unsure_count":0,"validations":[],"audit_task_id":214,"mission_id":116,"image_capture_date":"2025-11","heading":338.2348961123,"pitch":-16.718750000001315,"zoom":2,"canvas_x":381,"canvas_y":146,"canvas_width":720,"canvas_height":480,"pano_x":5446,"pano_y":1589,"pano_width":5760,"pano_height":2880,"camera_heading":179.5161461123,"camera_pitch":-2.10962326056645,"camera_roll":1.704248754568672,"pano_url":"https://www.mapillary.com/app/?pKey=1519555342687049&focus=photo"}},{"type":"Feature","geometry":{"type":"Point","coordinates":[-94.84401270618734,42.84543075054245]},"properties":{"label_id":3135,"user_id":"549187e0-redacted","pano_id":"1519555342687049","pano_source":"mapillary","label_type":"NoCurbRamp","severity":null,"tags":["no alternate route"],"description":null,"time_created":"2026-09-30T13:59:48.104Z","high_quality_user":true,"street_edge_id":159,"osm_way_id":15997796,"region_id":1,"region_name":"Laurens","street_side":"right","centerline_offset_m":-7.13522304,"correct":null,"agree_count":0,"disagree_count":0,"unsure_count":0,"validations":[],"audit_task_id":214,"mission_id":116,"image_capture_date":"2025-11","heading":338.2348961123,"pitch":-16.718750000001315,"zoom":2,"canvas_x":232,"canvas_y":268,"canvas_width":720,"canvas_height":480,"pano_x":5250,"pano_y":1738,"pano_width":5760,"pano_height":2880,"camera_heading":179.5161461123,"camera_pitch":-2.10962326056645,"camera_roll":1.704248754568672,"pano_url":"https://www.mapillary.com/app/?pKey=1519555342687049&focus=photo"}}]}