{"type":"FeatureCollection","features":[{"type":"Feature","geometry":{"type":"LineString","coordinates":[[-94.843845,42.843576],[-94.842839,42.843568],[-94.841459,42.843545]]},"properties":{"street_edge_id":1,"osm_way_id":15991384,"region_id":1,"region_name":"Laurens","way_type":"residential","max_speed":null,"status":"open","user_ids":["51b0b927-3c8a-45b2-93de-bd878d1e5cf4","549187e0-redacted"],"label_count":32,"audit_count":1,"outdated":false,"user_count":2,"first_label_date":"2026-09-17T01:46:45.271388Z","last_label_date":"2026-09-18T23:20:53.133Z"}},{"type":"Feature","geometry":{"type":"LineString","coordinates":[[-94.846193,42.843596],[-94.843845,42.843576]]},"properties":{"street_edge_id":2,"osm_way_id":15991384,"region_id":1,"region_name":"Laurens","way_type":"residential","max_speed":null,"status":"open","user_ids":["549187e0-redacted"],"label_count":29,"audit_count":1,"outdated":false,"user_count":1,"first_label_date":"2026-09-18T23:18:50.062Z","last_label_date":"2026-09-19T23:27:44.156Z"}},{"type":"Feature","geometry":{"type":"LineString","coordinates":[[-94.847445,42.843591],[-94.846193,42.843596]]},"properties":{"street_edge_id":3,"osm_way_id":15991384,"region_id":1,"region_name":"Laurens","way_type":"residential","max_speed":null,"status":"open","user_ids":["549187e0-redacted"],"label_count":2,"audit_count":0,"outdated":false,"user_count":1,"first_label_date":"2026-09-19T23:25:16.688Z","last_label_date":"2026-09-19T23:25:17.475Z"}},{"type":"Feature","geometry":{"type":"LineString","coordinates":[[-94.852911,42.844672],[-94.852961,42.843923]]},"properties":{"street_edge_id":4,"osm_way_id":15991387,"region_id":1,"region_name":"Laurens","way_type":"residential","max_speed":null,"status":"open","user_ids":["51b0b927-3c8a-45b2-93de-bd878d1e5cf4"],"label_count":3,"audit_count":0,"outdated":false,"user_count":1,"first_label_date":"2026-09-17T01:47:30.325154Z","last_label_date":"2026-09-22T01:14:58.307219Z"}},{"type":"Feature","geometry":{"type":"LineString","coordinates":[[-94.852877,42.845685],[-94.852897,42.844885],[-94.852911,42.844672]]},"properties":{"street_edge_id":5,"osm_way_id":15991387,"region_id":1,"region_name":"Laurens","way_type":"residential","max_speed":null,"status":"open","user_ids":["51b0b927-3c8a-45b2-93de-bd878d1e5cf4","549187e0-redacted"],"label_count":13,"audit_count":0,"outdated":false,"user_count":2,"first_label_date":"2026-09-17T01:43:28.640093Z","last_label_date":"2026-09-22T18:16:36.022Z"}},{"type":"Feature","geometry":{"type":"LineString","coordinates":[[-94.8528441,42.8467042],[-94.852877,42.845685]]},"properties":{"street_edge_id":6,"osm_way_id":15991387,"region_id":1,"region_name":"Laurens","way_type":"residential","max_speed":null,"status":"open","user_ids":["51b0b927-3c8a-45b2-93de-bd878d1e5cf4","549187e0-redacted"],"label_count":31,"audit_count":0,"outdated":false,"user_count":2,"first_label_date":"2026-09-17T01:43:40.444831Z","last_label_date":"2026-09-23T15:35:01.419Z"}},{"type":"Feature","geometry":{"type":"LineString","coordinates":[[-94.84147,42.8497817],[-94.8414237,42.849784],[-94.841373,42.8497836],[-94.83929356,42.84976668]]},"properties":{"street_edge_id":7,"osm_way_id":15991388,"region_id":1,"region_name":"Laurens","way_type":"tertiary","max_speed":null,"status":"open","user_ids":[],"label_count":0,"audit_count":0,"outdated":false,"user_count":0,"first_label_date":null,"last_label_date":null}},{"type":"Feature","geometry":{"type":"LineString","coordinates":[[-94.8537441,42.8446851],[-94.853616,42.844684],[-94.852911,42.844672]]},"properties":{"street_edge_id":8,"osm_way_id":15991587,"region_id":1,"region_name":"Laurens","way_type":"residential","max_speed":null,"status":"open","user_ids":["51b0b927-3c8a-45b2-93de-bd878d1e5cf4"],"label_count":2,"audit_count":0,"outdated":false,"user_count":1,"first_label_date":"2026-09-17T01:41:25.443384Z","last_label_date":"2026-09-22T01:14:09.023584Z"}},{"type":"Feature","geometry":{"type":"LineString","coordinates":[[-94.8515382,42.844645],[-94.8522186,42.8446598],[-94.852911,42.844672]]},"properties":{"street_edge_id":9,"osm_way_id":15991587,"region_id":1,"region_name":"Laurens","way_type":"residential","max_speed":null,"status":"open","user_ids":["51b0b927-3c8a-45b2-93de-bd878d1e5cf4"],"label_count":11,"audit_count":0,"outdated":false,"user_count":1,"first_label_date":"2026-09-17T01:40:44.797391Z","last_label_date":"2026-09-22T01:14:47.969920Z"}},{"type":"Feature","geometry":{"type":"LineString","coordinates":[[-94.850129,42.844617],[-94.849464,42.8446039],[-94.84877,42.84459]]},"properties":{"street_edge_id":10,"osm_way_id":15991587,"region_id":1,"region_name":"Laurens","way_type":"residential","max_speed":null,"status":"open","user_ids":["51b0b927-3c8a-45b2-93de-bd878d1e5cf4"],"label_count":29,"audit_count":0,"outdated":false,"user_count":1,"first_label_date":"2026-09-17T01:44:04.200013Z","last_label_date":"2026-09-22T01:15:07.100055Z"}},{"type":"Feature","geometry":{"type":"LineString","coordinates":[[-94.8515382,42.844645],[-94.850832,42.844631],[-94.850129,42.844617]]},"properties":{"street_edge_id":11,"osm_way_id":15991587,"region_id":1,"region_name":"Laurens","way_type":"residential","max_speed":null,"status":"open","user_ids":["51b0b927-3c8a-45b2-93de-bd878d1e5cf4"],"label_count":21,"audit_count":0,"outdated":false,"user_count":1,"first_label_date":"2026-09-17T01:41:46.776858Z","last_label_date":"2026-09-22T01:15:14.408149Z"}},{"type":"Feature","geometry":{"type":"LineString","coordinates":[[-94.855666,42.8490743],[-94.855646,42.8500319]]},"properties":{"street_edge_id":12,"osm_way_id":15993529,"region_id":1,"region_name":"Laurens","way_type":"residential","max_speed":null,"status":"open","user_ids":[],"label_count":0,"audit_count":0,"outdated":false,"user_count":0,"first_label_date":null,"last_label_date":null}},{"type":"Feature","geometry":{"type":"LineString","coordinates":[[-94.841446,42.842579],[-94.8414,42.842578],[-94.839717,42.842549],[-94.838856,42.842542],[-94.838692,42.842541],[-94.838578,42.842539],[-94.83849511,42.84253812]]},"properties":{"street_edge_id":13,"osm_way_id":15994059,"region_id":1,"region_name":"Laurens","way_type":"tertiary","max_speed":null,"status":"open","user_ids":["51b0b927-3c8a-45b2-93de-bd878d1e5cf4","549187e0-redacted"],"label_count":40,"audit_count":1,"outdated":false,"user_count":2,"first_label_date":"2026-09-18T22:22:46.853Z","last_label_date":"2026-09-22T01:14:47.341461Z"}},{"type":"Feature","geometry":{"type":"LineString","coordinates":[[-94.847244,42.847335],[-94.847221,42.846602]]},"properties":{"street_edge_id":14,"osm_way_id":15995929,"region_id":1,"region_name":"Laurens","way_type":"residential","max_speed":null,"status":"no_imagery","user_ids":[],"label_count":0,"audit_count":0,"outdated":false,"user_count":0,"first_label_date":null,"last_label_date":null}},{"type":"Feature","geometry":{"type":"LineString","coordinates":[[-94.843897,42.846526],[-94.843423,42.846517],[-94.8414761,42.8464912]]},"properties":{"street_edge_id":15,"osm_way_id":15996003,"region_id":1,"region_name":"Laurens","way_type":"residential","max_speed":null,"status":"open","user_ids":["51b0b927-3c8a-45b2-93de-bd878d1e5cf4","549187e0-redacted"],"label_count":30,"audit_count":1,"outdated":false,"user_count":2,"first_label_date":"2026-09-17T01:44:58.652669Z","last_label_date":"2026-09-22T01:15:09.803958Z"}},{"type":"Feature","geometry":{"type":"LineString","coordinates":[[-94.847358,42.846606],[-94.847221,42.846602],[-94.84624,42.846574]]},"properties":{"street_edge_id":16,"osm_way_id":15996003,"region_id":1,"region_name":"Laurens","way_type":"residential","max_speed":null,"status":"open","user_ids":["51b0b927-3c8a-45b2-93de-bd878d1e5cf4","549187e0-redacted"],"label_count":20,"audit_count":0,"outdated":false,"user_count":2,"first_label_date":"2026-09-17T01:45:30.156847Z","last_label_date":"2026-09-25T14:10:58.621Z"}},{"type":"Feature","geometry":{"type":"LineString","coordinates":[[-94.84624,42.846574],[-94.845997,42.846569],[-94.843897,42.846526]]},"properties":{"street_edge_id":17,"osm_way_id":15996003,"region_id":1,"region_name":"Laurens","way_type":"residential","max_speed":null,"status":"open","user_ids":["51b0b927-3c8a-45b2-93de-bd878d1e5cf4","549187e0-redacted"],"label_count":46,"audit_count":1,"outdated":false,"user_count":2,"first_label_date":"2026-09-17T01:44:00.124670Z","last_label_date":"2026-09-22T01:14:39.547147Z"}},{"type":"Feature","geometry":{"type":"LineString","coordinates":[[-94.8487005,42.8466209],[-94.848014,42.846619],[-94.847733,42.846617],[-94.847358,42.846606]]},"properties":{"street_edge_id":18,"osm_way_id":15996003,"region_id":1,"region_name":"Laurens","way_type":"residential","max_speed":null,"status":"open","user_ids":["51b0b927-3c8a-45b2-93de-bd878d1e5cf4","549187e0-redacted"],"label_count":30,"audit_count":1,"outdated":false,"user_count":2,"first_label_date":"2026-09-17T01:42:50.799916Z","last_label_date":"2026-09-22T01:15:10.338084Z"}},{"type":"Feature","geometry":{"type":"LineString","coordinates":[[-94.856216,42.853782],[-94.85616,42.853778],[-94.855699,42.853767],[-94.854634,42.853751],[-94.853941,42.853742]]},"properties":{"street_edge_id":19,"osm_way_id":15996007,"region_id":1,"region_name":"Laurens","way_type":"residential","max_speed":null,"status":"open","user_ids":[],"label_count":0,"audit_count":0,"outdated":false,"user_count":0,"first_label_date":null,"last_label_date":null}},{"type":"Feature","geometry":{"type":"LineString","coordinates":[[-94.8537441,42.8446851],[-94.853427,42.84437],[-94.852961,42.843923]]},"properties":{"street_edge_id":20,"osm_way_id":15996037,"region_id":1,"region_name":"Laurens","way_type":"primary","max_speed":"35 mph","status":"open","user_ids":[],"label_count":0,"audit_count":0,"outdated":false,"user_count":0,"first_label_date":null,"last_label_date":null}},{"type":"Feature","geometry":{"type":"LineString","coordinates":[[-94.854278,42.845184],[-94.8537441,42.8446851]]},"properties":{"street_edge_id":21,"osm_way_id":15996037,"region_id":1,"region_name":"Laurens","way_type":"primary","max_speed":"35 mph","status":"open","user_ids":[],"label_count":0,"audit_count":0,"outdated":false,"user_count":0,"first_label_date":null,"last_label_date":null}},{"type":"Feature","geometry":{"type":"LineString","coordinates":[[-94.852961,42.843923],[-94.852775,42.843745],[-94.852217,42.843281],[-94.85183,42.842987],[-94.8516065,42.8428296],[-94.851441,42.842724]]},"properties":{"street_edge_id":22,"osm_way_id":15996037,"region_id":1,"region_name":"Laurens","way_type":"primary","max_speed":"35 mph","status":"open","user_ids":[],"label_count":0,"audit_count":0,"outdated":false,"user_count":0,"first_label_date":null,"last_label_date":null}},{"type":"Feature","geometry":{"type":"LineString","coordinates":[[-94.85483,42.84572],[-94.854278,42.845184]]},"properties":{"street_edge_id":23,"osm_way_id":15996037,"region_id":1,"region_name":"Laurens","way_type":"primary","max_speed":"35 mph","status":"open","user_ids":[],"label_count":0,"audit_count":0,"outdated":false,"user_count":0,"first_label_date":null,"last_label_date":null}},{"type":"Feature","geometry":{"type":"LineString","coordinates":[[-94.8559344,42.8467663],[-94.855235,42.846093],[-94.85483,42.84572]]},"properties":{"street_edge_id":24,"osm_way_id":15996037,"region_id":1,"region_name":"Laurens","way_type":"primary","max_speed":"35 mph","status":"open","user_ids":[],"label_count":0,"audit_count":0,"outdated":false,"user_count":0,"first_label_date":null,"last_label_date":null}},{"type":"Feature","geometry":{"type":"LineString","coordinates":[[-94.8562,42.847039],[-94.8559344,42.8467663]]},"properties":{"street_edge_id":25,"osm_way_id":15996037,"region_id":1,"region_name":"Laurens","way_type":"primary","max_speed":"35 mph","status":"open","user_ids":[],"label_count":0,"audit_count":0,"outdated":false,"user_count":0,"first_label_date":null,"last_label_date":null}},{"type":"Feature","geometry":{"type":"LineString","coordinates":[[-94.850106,42.845625],[-94.850129,42.844617]]},"properties":{"street_edge_id":26,"osm_way_id":15996188,"region_id":1,"region_name":"Laurens","way_type":"residential","max_speed":null,"status":"open","user_ids":["51b0b927-3c8a-45b2-93de-bd878d1e5cf4"],"label_count":18,"audit_count":0,"outdated":false,"user_count":1,"first_label_date":"2026-09-17T01:41:16.067438Z","last_label_date":"2026-09-22T01:15:14.408149Z"}},{"type":"Feature","geometry":{"type":"LineString","coordinates":[[-94.850235,42.842704],[-94.850139,42.844189],[-94.850129,42.844617]]},"properties":{"street_edge_id":27,"osm_way_id":15996188,"region_id":1,"region_name":"Laurens","way_type":"residential","max_speed":null,"status":"open","user_ids":["51b0b927-3c8a-45b2-93de-bd878d1e5cf4"],"label_count":14,"audit_count":0,"outdated":false,"user_count":1,"first_label_date":"2026-09-17T01:41:50.794883Z","last_label_date":"2026-09-22T01:15:14.408149Z"}},{"type":"Feature","geometry":{"type":"LineString","coordinates":[[-94.8500701,42.8466484],[-94.8500736,42.8465495],[-94.850106,42.845625]]},"properties":{"street_edge_id":28,"osm_way_id":15996188,"region_id":1,"region_name":"Laurens","way_type":"residential","max_speed":null,"status":"open","user_ids":["51b0b927-3c8a-45b2-93de-bd878d1e5cf4","549187e0-redacted"],"label_count":38,"audit_count":0,"outdated":false,"user_count":2,"first_label_date":"2026-09-17T01:40:55.368397Z","last_label_date":"2026-09-22T01:15:11.088240Z"}},{"type":"Feature","geometry":{"type":"LineString","coordinates":[[-94.8542152,42.8467317],[-94.8535502,42.8467184],[-94.8528441,42.8467042]]},"properties":{"street_edge_id":29,"osm_way_id":15996191,"region_id":1,"region_name":"Laurens","way_type":"tertiary","max_speed":null,"status":"open","user_ids":["51b0b927-3c8a-45b2-93de-bd878d1e5cf4","549187e0-redacted"],"label_count":32,"audit_count":0,"outdated":false,"user_count":2,"first_label_date":"2026-09-17T01:42:23.124770Z","last_label_date":"2026-09-23T15:35:20.221Z"}},{"type":"Feature","geometry":{"type":"LineString","coordinates":[[-94.8514618,42.8466764],[-94.8515943,42.8466791],[-94.8521405,42.84669],[-94.8528441,42.8467042]]},"properties":{"street_edge_id":30,"osm_way_id":15996191,"region_id":1,"region_name":"Laurens","way_type":"tertiary","max_speed":null,"status":"open","user_ids":["51b0b927-3c8a-45b2-93de-bd878d1e5cf4","549187e0-redacted"],"label_count":36,"audit_count":1,"outdated":false,"user_count":2,"first_label_date":"2026-09-17T01:41:22.896536Z","last_label_date":"2026-09-23T15:37:23.747Z"}},{"type":"Feature","geometry":{"type":"LineString","coordinates":[[-94.8500701,42.8466484],[-94.8493832,42.8466346],[-94.8487005,42.8466209]]},"properties":{"street_edge_id":31,"osm_way_id":15996191,"region_id":1,"region_name":"Laurens","way_type":"tertiary","max_speed":null,"status":"open","user_ids":["51b0b927-3c8a-45b2-93de-bd878d1e5cf4","549187e0-redacted"],"label_count":39,"audit_count":1,"outdated":false,"user_count":2,"first_label_date":"2026-09-17T01:40:55.368397Z","last_label_date":"2026-09-22T01:14:56.799088Z"}},{"type":"Feature","geometry":{"type":"LineString","coordinates":[[-94.8542152,42.8467317],[-94.8552508,42.8467526],[-94.8555626,42.8467588],[-94.8559344,42.8467663]]},"properties":{"street_edge_id":32,"osm_way_id":15996191,"region_id":1,"region_name":"Laurens","way_type":"tertiary","max_speed":null,"status":"open","user_ids":["51b0b927-3c8a-45b2-93de-bd878d1e5cf4","549187e0-redacted"],"label_count":23,"audit_count":0,"outdated":false,"user_count":2,"first_label_date":"2026-09-17T01:42:23.124770Z","last_label_date":"2026-09-22T18:25:18.065Z"}},{"type":"Feature","geometry":{"type":"LineString","coordinates":[[-94.8514618,42.8466764],[-94.8513323,42.8466738],[-94.8507855,42.8466628],[-94.8500701,42.8466484]]},"properties":{"street_edge_id":33,"osm_way_id":15996191,"region_id":1,"region_name":"Laurens","way_type":"tertiary","max_speed":null,"status":"open","user_ids":["51b0b927-3c8a-45b2-93de-bd878d1e5cf4","549187e0-redacted"],"label_count":39,"audit_count":1,"outdated":false,"user_count":2,"first_label_date":"2026-09-17T01:41:42.419725Z","last_label_date":"2026-09-22T01:14:55.234613Z"}},{"type":"Feature","geometry":{"type":"LineString","coordinates":[[-94.842381,42.842587],[-94.841446,42.842579]]},"properties":{"street_edge_id":34,"osm_way_id":15996255,"region_id":1,"region_name":"Laurens","way_type":"tertiary","max_speed":null,"status":"open","user_ids":["51b0b927-3c8a-45b2-93de-bd878d1e5cf4","549187e0-redacted"],"label_count":20,"audit_count":1,"outdated":false,"user_count":2,"first_label_date":"2026-09-17T14:11:12.042Z","last_label_date":"2026-09-22T01:14:03.713217Z"}},{"type":"Feature","geometry":{"type":"LineString","coordinates":[[-94.843829,42.842611],[-94.8427,42.84259],[-94.842381,42.842587]]},"properties":{"street_edge_id":35,"osm_way_id":15996255,"region_id":1,"region_name":"Laurens","way_type":"tertiary","max_speed":null,"status":"open","user_ids":["549187e0-redacted"],"label_count":10,"audit_count":0,"outdated":false,"user_count":1,"first_label_date":"2026-09-17T14:06:01.245Z","last_label_date":"2026-09-17T14:11:09.794Z"}},{"type":"Feature","geometry":{"type":"LineString","coordinates":[[-94.8461626,42.84265],[-94.8454233,42.8426344],[-94.844709,42.8426306],[-94.843829,42.842611]]},"properties":{"street_edge_id":36,"osm_way_id":15996255,"region_id":1,"region_name":"Laurens","way_type":"tertiary","max_speed":null,"status":"open","user_ids":["51b0b927-3c8a-45b2-93de-bd878d1e5cf4","549187e0-redacted"],"label_count":5,"audit_count":0,"outdated":false,"user_count":2,"first_label_date":"2026-09-17T01:41:42.085116Z","last_label_date":"2026-09-22T01:14:46.201956Z"}},{"type":"Feature","geometry":{"type":"LineString","coordinates":[[-94.8474646,42.842674],[-94.8480524,42.8426865],[-94.848172,42.842686],[-94.8487923,42.8426964],[-94.848841,42.842696]]},"properties":{"street_edge_id":37,"osm_way_id":15996255,"region_id":1,"region_name":"Laurens","way_type":"tertiary","max_speed":null,"status":"open","user_ids":[],"label_count":0,"audit_count":0,"outdated":false,"user_count":0,"first_label_date":null,"last_label_date":null}},{"type":"Feature","geometry":{"type":"LineString","coordinates":[[-94.8474646,42.842674],[-94.8461626,42.84265]]},"properties":{"street_edge_id":38,"osm_way_id":15996255,"region_id":1,"region_name":"Laurens","way_type":"tertiary","max_speed":null,"status":"open","user_ids":["51b0b927-3c8a-45b2-93de-bd878d1e5cf4"],"label_count":2,"audit_count":0,"outdated":false,"user_count":1,"first_label_date":"2026-09-22T01:13:54.927779Z","last_label_date":"2026-09-22T01:14:15.586047Z"}},{"type":"Feature","geometry":{"type":"LineString","coordinates":[[-94.846277,42.849828],[-94.8462871,42.849314]]},"properties":{"street_edge_id":39,"osm_way_id":15996263,"region_id":1,"region_name":"Laurens","way_type":"residential","max_speed":null,"status":"open","user_ids":["51b0b927-3c8a-45b2-93de-bd878d1e5cf4"],"label_count":5,"audit_count":0,"outdated":false,"user_count":1,"first_label_date":"2026-09-17T01:44:55.631740Z","last_label_date":"2026-09-22T01:14:01.369401Z"}},{"type":"Feature","geometry":{"type":"LineString","coordinates":[[-94.843859,42.844397],[-94.843845,42.843576]]},"properties":{"street_edge_id":40,"osm_way_id":15996376,"region_id":1,"region_name":"Laurens","way_type":"residential","max_speed":null,"status":"open","user_ids":["51b0b927-3c8a-45b2-93de-bd878d1e5cf4","549187e0-redacted"],"label_count":19,"audit_count":1,"outdated":false,"user_count":2,"first_label_date":"2026-09-17T01:43:18.630770Z","last_label_date":"2026-09-30T13:56:12.589Z"}},{"type":"Feature","geometry":{"type":"LineString","coordinates":[[-94.843829,42.842611],[-94.843845,42.843576]]},"properties":{"street_edge_id":41,"osm_way_id":15996376,"region_id":1,"region_name":"Laurens","way_type":"residential","max_speed":null,"status":"open","user_ids":["549187e0-redacted"],"label_count":8,"audit_count":0,"outdated":false,"user_count":1,"first_label_date":"2026-09-17T14:06:06.088Z","last_label_date":"2026-09-18T23:18:47.895Z"}},{"type":"Feature","geometry":{"type":"LineString","coordinates":[[-94.843878,42.845492],[-94.843897,42.846526]]},"properties":{"street_edge_id":42,"osm_way_id":15996376,"region_id":1,"region_name":"Laurens","way_type":"residential","max_speed":null,"status":"open","user_ids":["51b0b927-3c8a-45b2-93de-bd878d1e5cf4","549187e0-redacted"],"label_count":42,"audit_count":1,"outdated":false,"user_count":2,"first_label_date":"2026-09-17T01:41:23.135459Z","last_label_date":"2026-09-22T01:15:06.452258Z"}},{"type":"Feature","geometry":{"type":"LineString","coordinates":[[-94.843829,42.842611],[-94.84382,42.841948],[-94.843809,42.841144],[-94.843771,42.841003],[-94.843724,42.840965],[-94.843558,42.840967],[-94.842459,42.840956],[-94.8423659,42.8409766],[-94.8423469,42.8410498],[-94.842349,42.841274],[-94.842381,42.842587]]},"properties":{"street_edge_id":43,"osm_way_id":15996376,"region_id":1,"region_name":"Laurens","way_type":"residential","max_speed":null,"status":"open","user_ids":["51b0b927-3c8a-45b2-93de-bd878d1e5cf4","549187e0-redacted"],"label_count":109,"audit_count":1,"outdated":false,"user_count":2,"first_label_date":"2026-09-17T01:41:12.208699Z","last_label_date":"2026-09-22T01:14:54.133318Z"}},{"type":"Feature","geometry":{"type":"LineString","coordinates":[[-94.843878,42.845492],[-94.843869,42.844961],[-94.843859,42.844397]]},"properties":{"street_edge_id":44,"osm_way_id":15996376,"region_id":1,"region_name":"Laurens","way_type":"residential","max_speed":null,"status":"open","user_ids":["51b0b927-3c8a-45b2-93de-bd878d1e5cf4","549187e0-redacted"],"label_count":50,"audit_count":1,"outdated":false,"user_count":2,"first_label_date":"2026-09-17T01:42:39.826258Z","last_label_date":"2026-09-30T13:59:37.537Z"}},{"type":"Feature","geometry":{"type":"LineString","coordinates":[[-94.84859,42.849875],[-94.84861,42.849361],[-94.8486134,42.8491271],[-94.84865,42.848157],[-94.8486524,42.8480002],[-94.848667,42.847637],[-94.848673,42.847447]]},"properties":{"street_edge_id":45,"osm_way_id":15996421,"region_id":1,"region_name":"Laurens","way_type":"residential","max_speed":null,"status":"open","user_ids":["51b0b927-3c8a-45b2-93de-bd878d1e5cf4","549187e0-redacted"],"label_count":23,"audit_count":0,"outdated":false,"user_count":2,"first_label_date":"2026-09-17T01:40:47.955445Z","last_label_date":"2026-09-25T14:18:01.731Z"}},{"type":"Feature","geometry":{"type":"LineString","coordinates":[[-94.848542,42.850894],[-94.8485474,42.8507944],[-94.848569,42.850395],[-94.84859,42.849875]]},"properties":{"street_edge_id":46,"osm_way_id":15996421,"region_id":1,"region_name":"Laurens","way_type":"residential","max_speed":null,"status":"open","user_ids":["51b0b927-3c8a-45b2-93de-bd878d1e5cf4","549187e0-redacted"],"label_count":39,"audit_count":1,"outdated":false,"user_count":2,"first_label_date":"2026-09-17T01:41:09.021985Z","last_label_date":"2026-09-26T13:52:14.312Z"}},{"type":"Feature","geometry":{"type":"LineString","coordinates":[[-94.8484991,42.8518969],[-94.848542,42.850894]]},"properties":{"street_edge_id":47,"osm_way_id":15996421,"region_id":1,"region_name":"Laurens","way_type":"residential","max_speed":null,"status":"open","user_ids":["51b0b927-3c8a-45b2-93de-bd878d1e5cf4","549187e0-redacted"],"label_count":26,"audit_count":0,"outdated":false,"user_count":2,"first_label_date":"2026-09-17T01:41:52.846355Z","last_label_date":"2026-09-26T17:44:58.325Z"}},{"type":"Feature","geometry":{"type":"LineString","coordinates":[[-94.848422,42.853468],[-94.848465,42.852821],[-94.8484991,42.8518969]]},"properties":{"street_edge_id":48,"osm_way_id":15996421,"region_id":1,"region_name":"Laurens","way_type":"residential","max_speed":null,"status":"open","user_ids":["51b0b927-3c8a-45b2-93de-bd878d1e5cf4","549187e0-redacted"],"label_count":17,"audit_count":0,"outdated":false,"user_count":2,"first_label_date":"2026-09-17T01:40:45.427875Z","last_label_date":"2026-09-26T17:46:09.438Z"}},{"type":"Feature","geometry":{"type":"LineString","coordinates":[[-94.848731,42.845603],[-94.84877,42.84459]]},"properties":{"street_edge_id":49,"osm_way_id":15996485,"region_id":1,"region_name":"Laurens","way_type":"tertiary","max_speed":null,"status":"open","user_ids":["51b0b927-3c8a-45b2-93de-bd878d1e5cf4"],"label_count":24,"audit_count":0,"outdated":false,"user_count":1,"first_label_date":"2026-09-17T01:44:17.785825Z","last_label_date":"2026-09-22T01:14:52.043341Z"}},{"type":"Feature","geometry":{"type":"LineString","coordinates":[[-94.848841,42.842696],[-94.84877,42.84459]]},"properties":{"street_edge_id":50,"osm_way_id":15996485,"region_id":1,"region_name":"Laurens","way_type":"tertiary","max_speed":null,"status":"open","user_ids":["51b0b927-3c8a-45b2-93de-bd878d1e5cf4"],"label_count":23,"audit_count":0,"outdated":false,"user_count":1,"first_label_date":"2026-09-17T01:41:52.364746Z","last_label_date":"2026-09-22T01:15:07.100055Z"}},{"type":"Feature","geometry":{"type":"LineString","coordinates":[[-94.848673,42.847447],[-94.8487005,42.8466209]]},"properties":{"street_edge_id":51,"osm_way_id":15996485,"region_id":1,"region_name":"Laurens","way_type":"tertiary","max_speed":null,"status":"open","user_ids":["51b0b927-3c8a-45b2-93de-bd878d1e5cf4","549187e0-redacted"],"label_count":30,"audit_count":0,"outdated":false,"user_count":2,"first_label_date":"2026-09-17T01:41:01.281253Z","last_label_date":"2026-09-22T01:15:11.658326Z"}},{"type":"Feature","geometry":{"type":"LineString","coordinates":[[-94.848731,42.845603],[-94.848711,42.846089],[-94.8487005,42.8466209]]},"properties":{"street_edge_id":52,"osm_way_id":15996485,"region_id":1,"region_name":"Laurens","way_type":"tertiary","max_speed":null,"status":"open","user_ids":["51b0b927-3c8a-45b2-93de-bd878d1e5cf4","549187e0-redacted"],"label_count":32,"audit_count":0,"outdated":false,"user_count":2,"first_label_date":"2026-09-17T01:41:01.281253Z","last_label_date":"2026-09-22T01:14:56.799088Z"}},{"type":"Feature","geometry":{"type":"LineString","coordinates":[[-94.847407,42.844566],[-94.846208,42.844549]]},"properties":{"street_edge_id":53,"osm_way_id":15996486,"region_id":1,"region_name":"Laurens","way_type":"residential","max_speed":null,"status":"open","user_ids":["51b0b927-3c8a-45b2-93de-bd878d1e5cf4","549187e0-redacted"],"label_count":10,"audit_count":0,"outdated":false,"user_count":2,"first_label_date":"2026-09-17T01:40:49.595820Z","last_label_date":"2026-09-22T01:15:14.691446Z"}},{"type":"Feature","geometry":{"type":"LineString","coordinates":[[-94.8548,42.843978],[-94.854779,42.843667]]},"properties":{"street_edge_id":54,"osm_way_id":15996549,"region_id":1,"region_name":"Laurens","way_type":"residential","max_speed":null,"status":"open","user_ids":[],"label_count":0,"audit_count":0,"outdated":false,"user_count":0,"first_label_date":null,"last_label_date":null}},{"type":"Feature","geometry":{"type":"LineString","coordinates":[[-94.8547549,42.8427678],[-94.854779,42.843667]]},"properties":{"street_edge_id":55,"osm_way_id":15996549,"region_id":1,"region_name":"Laurens","way_type":"residential","max_speed":null,"status":"open","user_ids":[],"label_count":0,"audit_count":0,"outdated":false,"user_count":0,"first_label_date":null,"last_label_date":null}},{"type":"Feature","geometry":{"type":"LineString","coordinates":[[-94.852794,42.84791],[-94.8528441,42.8467042]]},"properties":{"street_edge_id":56,"osm_way_id":15996561,"region_id":1,"region_name":"Laurens","way_type":"residential","max_speed":null,"status":"open","user_ids":["51b0b927-3c8a-45b2-93de-bd878d1e5cf4","549187e0-redacted"],"label_count":41,"audit_count":1,"outdated":false,"user_count":2,"first_label_date":"2026-09-17T01:41:22.896536Z","last_label_date":"2026-09-23T15:35:38.411Z"}},{"type":"Feature","geometry":{"type":"LineString","coordinates":[[-94.841471,42.84438],[-94.841459,42.843545]]},"properties":{"street_edge_id":57,"osm_way_id":15996662,"region_id":1,"region_name":"Laurens","way_type":"residential","max_speed":null,"status":"open","user_ids":["549187e0-redacted"],"label_count":21,"audit_count":1,"outdated":false,"user_count":1,"first_label_date":"2026-09-18T23:21:01.714Z","last_label_date":"2026-09-30T13:52:38.627Z"}},{"type":"Feature","geometry":{"type":"LineString","coordinates":[[-94.841446,42.842579],[-94.841459,42.843545]]},"properties":{"street_edge_id":58,"osm_way_id":15996662,"region_id":1,"region_name":"Laurens","way_type":"residential","max_speed":null,"status":"open","user_ids":["549187e0-redacted"],"label_count":18,"audit_count":0,"outdated":false,"user_count":1,"first_label_date":"2026-09-18T23:16:26.683Z","last_label_date":"2026-09-21T16:58:59.818Z"}},{"type":"Feature","geometry":{"type":"LineString","coordinates":[[-94.841485,42.845445],[-94.8414761,42.8464912]]},"properties":{"street_edge_id":59,"osm_way_id":15996662,"region_id":1,"region_name":"Laurens","way_type":"residential","max_speed":null,"status":"open","user_ids":["51b0b927-3c8a-45b2-93de-bd878d1e5cf4","549187e0-redacted"],"label_count":21,"audit_count":1,"outdated":false,"user_count":2,"first_label_date":"2026-09-17T13:53:24.889Z","last_label_date":"2026-09-22T01:14:07.342686Z"}},{"type":"Feature","geometry":{"type":"LineString","coordinates":[[-94.841485,42.845445],[-94.841479,42.844917],[-94.841476,42.844685],[-94.841471,42.84438]]},"properties":{"street_edge_id":60,"osm_way_id":15996662,"region_id":1,"region_name":"Laurens","way_type":"residential","max_speed":null,"status":"open","user_ids":["549187e0-redacted"],"label_count":21,"audit_count":1,"outdated":false,"user_count":1,"first_label_date":"2026-09-17T13:53:22.707Z","last_label_date":"2026-09-18T23:24:52.989Z"}},{"type":"Feature","geometry":{"type":"LineString","coordinates":[[-94.849914,42.850914],[-94.848653,42.8508956],[-94.848542,42.850894]]},"properties":{"street_edge_id":61,"osm_way_id":15996665,"region_id":1,"region_name":"Laurens","way_type":"residential","max_speed":null,"status":"open","user_ids":["51b0b927-3c8a-45b2-93de-bd878d1e5cf4","549187e0-redacted"],"label_count":27,"audit_count":0,"outdated":false,"user_count":2,"first_label_date":"2026-09-17T01:41:06.771535Z","last_label_date":"2026-09-26T13:51:31.065Z"}},{"type":"Feature","geometry":{"type":"LineString","coordinates":[[-94.843581,42.848799],[-94.843562,42.847813]]},"properties":{"street_edge_id":62,"osm_way_id":15996671,"region_id":1,"region_name":"Laurens","way_type":"residential","max_speed":null,"status":"open","user_ids":[],"label_count":0,"audit_count":0,"outdated":false,"user_count":0,"first_label_date":null,"last_label_date":null}},{"type":"Feature","geometry":{"type":"LineString","coordinates":[[-94.843611,42.849811],[-94.8435961,42.849308],[-94.843581,42.848799]]},"properties":{"street_edge_id":63,"osm_way_id":15996671,"region_id":1,"region_name":"Laurens","way_type":"residential","max_speed":null,"status":"open","user_ids":["51b0b927-3c8a-45b2-93de-bd878d1e5cf4"],"label_count":1,"audit_count":0,"outdated":false,"user_count":1,"first_label_date":"2026-09-22T01:13:44.778269Z","last_label_date":"2026-09-22T01:13:44.778269Z"}},{"type":"Feature","geometry":{"type":"LineString","coordinates":[[-94.844635,42.852103],[-94.844316,42.851839],[-94.843912,42.851488],[-94.843718,42.851237],[-94.843688,42.851014],[-94.843682,42.850376],[-94.84369,42.849811]]},"properties":{"street_edge_id":64,"osm_way_id":15996678,"region_id":1,"region_name":"Laurens","way_type":"residential","max_speed":null,"status":"open","user_ids":[],"label_count":0,"audit_count":0,"outdated":false,"user_count":0,"first_label_date":null,"last_label_date":null}},{"type":"Feature","geometry":{"type":"LineString","coordinates":[[-94.845042,42.845518],[-94.845017,42.844415]]},"properties":{"street_edge_id":65,"osm_way_id":15996683,"region_id":1,"region_name":"Laurens","way_type":"residential","max_speed":null,"status":"open","user_ids":["51b0b927-3c8a-45b2-93de-bd878d1e5cf4","549187e0-redacted"],"label_count":30,"audit_count":1,"outdated":false,"user_count":2,"first_label_date":"2026-09-17T01:41:40.175230Z","last_label_date":"2026-09-22T01:15:00.691354Z"}},{"type":"Feature","geometry":{"type":"LineString","coordinates":[[-94.854251,42.845717],[-94.853586,42.845698],[-94.852877,42.845685]]},"properties":{"street_edge_id":66,"osm_way_id":15996716,"region_id":1,"region_name":"Laurens","way_type":"residential","max_speed":null,"status":"open","user_ids":["51b0b927-3c8a-45b2-93de-bd878d1e5cf4","549187e0-redacted"],"label_count":39,"audit_count":1,"outdated":false,"user_count":2,"first_label_date":"2026-09-17T01:42:57.012806Z","last_label_date":"2026-09-22T18:20:04.055Z"}},{"type":"Feature","geometry":{"type":"LineString","coordinates":[[-94.8515003,42.8456541],[-94.8521798,42.8456693],[-94.852877,42.845685]]},"properties":{"street_edge_id":67,"osm_way_id":15996716,"region_id":1,"region_name":"Laurens","way_type":"residential","max_speed":null,"status":"open","user_ids":["51b0b927-3c8a-45b2-93de-bd878d1e5cf4","549187e0-redacted"],"label_count":45,"audit_count":1,"outdated":false,"user_count":2,"first_label_date":"2026-09-17T01:43:57.244458Z","last_label_date":"2026-09-22T18:15:01.483Z"}},{"type":"Feature","geometry":{"type":"LineString","coordinates":[[-94.854251,42.845717],[-94.85483,42.84572]]},"properties":{"street_edge_id":68,"osm_way_id":15996716,"region_id":1,"region_name":"Laurens","way_type":"residential","max_speed":null,"status":"open","user_ids":["51b0b927-3c8a-45b2-93de-bd878d1e5cf4","549187e0-redacted"],"label_count":11,"audit_count":0,"outdated":false,"user_count":2,"first_label_date":"2026-09-17T01:41:40.261019Z","last_label_date":"2026-09-22T18:22:22.038Z"}},{"type":"Feature","geometry":{"type":"LineString","coordinates":[[-94.8515003,42.8456541],[-94.850809,42.8456337],[-94.850106,42.845625]]},"properties":{"street_edge_id":69,"osm_way_id":15996716,"region_id":1,"region_name":"Laurens","way_type":"residential","max_speed":null,"status":"open","user_ids":["51b0b927-3c8a-45b2-93de-bd878d1e5cf4","549187e0-redacted"],"label_count":31,"audit_count":0,"outdated":false,"user_count":2,"first_label_date":"2026-09-17T01:40:57.427980Z","last_label_date":"2026-09-22T01:15:10.732723Z"}},{"type":"Feature","geometry":{"type":"LineString","coordinates":[[-94.848731,42.845603],[-94.8494238,42.845615],[-94.850106,42.845625]]},"properties":{"street_edge_id":70,"osm_way_id":15996716,"region_id":1,"region_name":"Laurens","way_type":"residential","max_speed":null,"status":"open","user_ids":["51b0b927-3c8a-45b2-93de-bd878d1e5cf4"],"label_count":34,"audit_count":0,"outdated":false,"user_count":1,"first_label_date":"2026-09-17T01:40:50.875586Z","last_label_date":"2026-09-22T01:14:54.048106Z"}},{"type":"Feature","geometry":{"type":"LineString","coordinates":[[-94.84227,42.8487978],[-94.843581,42.848799]]},"properties":{"street_edge_id":71,"osm_way_id":15996740,"region_id":1,"region_name":"Laurens","way_type":"residential","max_speed":null,"status":"open","user_ids":["51b0b927-3c8a-45b2-93de-bd878d1e5cf4"],"label_count":2,"audit_count":0,"outdated":false,"user_count":1,"first_label_date":"2026-09-22T01:14:21.327549Z","last_label_date":"2026-09-22T01:14:30.283761Z"}},{"type":"Feature","geometry":{"type":"LineString","coordinates":[[-94.844935,42.848824],[-94.843581,42.848799]]},"properties":{"street_edge_id":72,"osm_way_id":15996740,"region_id":1,"region_name":"Laurens","way_type":"residential","max_speed":null,"status":"open","user_ids":[],"label_count":0,"audit_count":0,"outdated":false,"user_count":0,"first_label_date":null,"last_label_date":null}},{"type":"Feature","geometry":{"type":"LineString","coordinates":[[-94.841491,42.848774],[-94.84227,42.8487978]]},"properties":{"street_edge_id":73,"osm_way_id":15996740,"region_id":1,"region_name":"Laurens","way_type":"residential","max_speed":null,"status":"open","user_ids":["51b0b927-3c8a-45b2-93de-bd878d1e5cf4"],"label_count":1,"audit_count":0,"outdated":false,"user_count":1,"first_label_date":"2026-09-22T01:14:05.750929Z","last_label_date":"2026-09-22T01:14:05.750929Z"}},{"type":"Feature","geometry":{"type":"LineString","coordinates":[[-94.844933,42.848135],[-94.844935,42.848824]]},"properties":{"street_edge_id":74,"osm_way_id":15996741,"region_id":1,"region_name":"Laurens","way_type":"residential","max_speed":null,"status":"open","user_ids":[],"label_count":0,"audit_count":0,"outdated":false,"user_count":0,"first_label_date":null,"last_label_date":null}},{"type":"Feature","geometry":{"type":"LineString","coordinates":[[-94.844944,42.849816],[-94.8449395,42.8493158],[-94.844935,42.848824]]},"properties":{"street_edge_id":75,"osm_way_id":15996741,"region_id":1,"region_name":"Laurens","way_type":"residential","max_speed":null,"status":"open","user_ids":["51b0b927-3c8a-45b2-93de-bd878d1e5cf4"],"label_count":1,"audit_count":0,"outdated":false,"user_count":1,"first_label_date":"2026-09-22T01:14:58.799972Z","last_label_date":"2026-09-22T01:14:58.799972Z"}},{"type":"Feature","geometry":{"type":"LineString","coordinates":[[-94.850036,42.847605],[-94.8500701,42.8466484]]},"properties":{"street_edge_id":76,"osm_way_id":15996746,"region_id":1,"region_name":"Laurens","way_type":"residential","max_speed":null,"status":"open","user_ids":["51b0b927-3c8a-45b2-93de-bd878d1e5cf4","549187e0-redacted"],"label_count":23,"audit_count":0,"outdated":false,"user_count":2,"first_label_date":"2026-09-17T01:41:40.377552Z","last_label_date":"2026-09-22T01:15:11.578208Z"}},{"type":"Feature","geometry":{"type":"LineString","coordinates":[[-94.8512943,42.8509431],[-94.8506231,42.850929],[-94.849914,42.850914]]},"properties":{"street_edge_id":77,"osm_way_id":15996828,"region_id":1,"region_name":"Laurens","way_type":"residential","max_speed":null,"status":"open","user_ids":["51b0b927-3c8a-45b2-93de-bd878d1e5cf4","549187e0-redacted"],"label_count":39,"audit_count":1,"outdated":false,"user_count":2,"first_label_date":"2026-09-17T01:44:08.256544Z","last_label_date":"2026-09-24T23:32:06.970Z"}},{"type":"Feature","geometry":{"type":"LineString","coordinates":[[-94.8526762,42.8509723],[-94.8519452,42.8509569],[-94.8512943,42.8509431]]},"properties":{"street_edge_id":78,"osm_way_id":15996828,"region_id":1,"region_name":"Laurens","way_type":"residential","max_speed":null,"status":"open","user_ids":["51b0b927-3c8a-45b2-93de-bd878d1e5cf4","549187e0-redacted"],"label_count":29,"audit_count":0,"outdated":false,"user_count":2,"first_label_date":"2026-09-17T01:40:59.505828Z","last_label_date":"2026-09-24T23:29:28.021Z"}},{"type":"Feature","geometry":{"type":"LineString","coordinates":[[-94.8540421,42.8510011],[-94.8526762,42.8509723]]},"properties":{"street_edge_id":79,"osm_way_id":15996828,"region_id":1,"region_name":"Laurens","way_type":"residential","max_speed":null,"status":"open","user_ids":["51b0b927-3c8a-45b2-93de-bd878d1e5cf4"],"label_count":8,"audit_count":0,"outdated":false,"user_count":1,"first_label_date":"2026-09-17T01:45:44.769692Z","last_label_date":"2026-09-22T01:14:46.538379Z"}},{"type":"Feature","geometry":{"type":"LineString","coordinates":[[-94.8562658,42.851048],[-94.85625654,42.8510478],[-94.8547211,42.8510154],[-94.8541596,42.8510036],[-94.8540421,42.8510011]]},"properties":{"street_edge_id":80,"osm_way_id":15996828,"region_id":1,"region_name":"Laurens","way_type":"residential","max_speed":null,"status":"open","user_ids":["51b0b927-3c8a-45b2-93de-bd878d1e5cf4"],"label_count":2,"audit_count":0,"outdated":false,"user_count":1,"first_label_date":"2026-09-22T01:13:53.370493Z","last_label_date":"2026-09-22T01:14:51.670985Z"}},{"type":"Feature","geometry":{"type":"LineString","coordinates":[[-94.8514208,42.8477476],[-94.8514243,42.847656],[-94.8514581,42.8467725],[-94.8514618,42.8466764]]},"properties":{"street_edge_id":81,"osm_way_id":15996928,"region_id":1,"region_name":"Laurens","way_type":"tertiary","max_speed":null,"status":"open","user_ids":["51b0b927-3c8a-45b2-93de-bd878d1e5cf4","549187e0-redacted"],"label_count":50,"audit_count":1,"outdated":false,"user_count":2,"first_label_date":"2026-09-17T01:40:50.740535Z","last_label_date":"2026-09-23T16:48:01.185Z"}},{"type":"Feature","geometry":{"type":"LineString","coordinates":[[-94.8513372,42.8499361],[-94.8513995,42.8483066],[-94.8514174,42.8478364],[-94.8514208,42.8477476]]},"properties":{"street_edge_id":82,"osm_way_id":15996928,"region_id":1,"region_name":"Laurens","way_type":"tertiary","max_speed":null,"status":"open","user_ids":["51b0b927-3c8a-45b2-93de-bd878d1e5cf4","549187e0-redacted"],"label_count":47,"audit_count":1,"outdated":false,"user_count":2,"first_label_date":"2026-09-17T01:41:36.253505Z","last_label_date":"2026-09-24T13:42:15.259Z"}},{"type":"Feature","geometry":{"type":"LineString","coordinates":[[-94.8547549,42.8427678],[-94.8538799,42.8427574],[-94.8530165,42.8427426],[-94.8524257,42.8427348],[-94.8519751,42.8427295],[-94.8519068,42.8427287],[-94.8516721,42.8427305],[-94.851441,42.842724]]},"properties":{"street_edge_id":83,"osm_way_id":15996943,"region_id":1,"region_name":"Laurens","way_type":"tertiary","max_speed":null,"status":"open","user_ids":[],"label_count":0,"audit_count":0,"outdated":false,"user_count":0,"first_label_date":null,"last_label_date":null}},{"type":"Feature","geometry":{"type":"LineString","coordinates":[[-94.850235,42.842704],[-94.850428,42.842704],[-94.8512025,42.8427227],[-94.851441,42.842724]]},"properties":{"street_edge_id":84,"osm_way_id":15996943,"region_id":1,"region_name":"Laurens","way_type":"tertiary","max_speed":null,"status":"open","user_ids":["51b0b927-3c8a-45b2-93de-bd878d1e5cf4"],"label_count":1,"audit_count":0,"outdated":false,"user_count":1,"first_label_date":"2026-09-22T01:14:22.832315Z","last_label_date":"2026-09-22T01:14:22.832315Z"}},{"type":"Feature","geometry":{"type":"LineString","coordinates":[[-94.848841,42.842696],[-94.8495397,42.8427],[-94.850235,42.842704]]},"properties":{"street_edge_id":85,"osm_way_id":15996943,"region_id":1,"region_name":"Laurens","way_type":"tertiary","max_speed":null,"status":"open","user_ids":["51b0b927-3c8a-45b2-93de-bd878d1e5cf4"],"label_count":1,"audit_count":0,"outdated":false,"user_count":1,"first_label_date":"2026-09-22T01:14:02.682427Z","last_label_date":"2026-09-22T01:14:02.682427Z"}},{"type":"Feature","geometry":{"type":"LineString","coordinates":[[-94.8547549,42.8427678],[-94.85523242,42.84276809],[-94.8559233,42.8427685],[-94.8561094,42.8427666]]},"properties":{"street_edge_id":86,"osm_way_id":15996943,"region_id":1,"region_name":"Laurens","way_type":"tertiary","max_speed":null,"status":"open","user_ids":[],"label_count":0,"audit_count":0,"outdated":false,"user_count":0,"first_label_date":null,"last_label_date":null}},{"type":"Feature","geometry":{"type":"LineString","coordinates":[[-94.8515003,42.8456541],[-94.8515382,42.844645]]},"properties":{"street_edge_id":87,"osm_way_id":15996946,"region_id":1,"region_name":"Laurens","way_type":"tertiary","max_speed":null,"status":"open","user_ids":["51b0b927-3c8a-45b2-93de-bd878d1e5cf4"],"label_count":9,"audit_count":0,"outdated":false,"user_count":1,"first_label_date":"2026-09-17T01:40:44.797391Z","last_label_date":"2026-09-22T01:14:36.334270Z"}},{"type":"Feature","geometry":{"type":"LineString","coordinates":[[-94.8516065,42.8428296],[-94.8515382,42.844645]]},"properties":{"street_edge_id":88,"osm_way_id":15996946,"region_id":1,"region_name":"Laurens","way_type":"tertiary","max_speed":null,"status":"open","user_ids":["51b0b927-3c8a-45b2-93de-bd878d1e5cf4"],"label_count":10,"audit_count":0,"outdated":false,"user_count":1,"first_label_date":"2026-09-17T01:43:01.058152Z","last_label_date":"2026-09-22T01:15:08.518554Z"}},{"type":"Feature","geometry":{"type":"LineString","coordinates":[[-94.8515003,42.8456541],[-94.8514618,42.8466764]]},"properties":{"street_edge_id":89,"osm_way_id":15996946,"region_id":1,"region_name":"Laurens","way_type":"tertiary","max_speed":null,"status":"open","user_ids":["51b0b927-3c8a-45b2-93de-bd878d1e5cf4","549187e0-redacted"],"label_count":33,"audit_count":1,"outdated":false,"user_count":2,"first_label_date":"2026-09-17T01:42:04.103315Z","last_label_date":"2026-09-22T01:15:13.572076Z"}},{"type":"Feature","geometry":{"type":"LineString","coordinates":[[-94.841491,42.848774],[-94.841491,42.848143],[-94.841466,42.8477744],[-94.841466,42.8476266],[-94.8414684,42.8471848],[-94.8414761,42.8464912]]},"properties":{"street_edge_id":90,"osm_way_id":15996960,"region_id":1,"region_name":"Laurens","way_type":"residential","max_speed":null,"status":"open","user_ids":["549187e0-redacted"],"label_count":1,"audit_count":0,"outdated":false,"user_count":1,"first_label_date":"2026-09-17T13:54:52.475Z","last_label_date":"2026-09-17T13:54:52.475Z"}},{"type":"Feature","geometry":{"type":"LineString","coordinates":[[-94.84147,42.8497817],[-94.841491,42.848774]]},"properties":{"street_edge_id":91,"osm_way_id":15996960,"region_id":1,"region_name":"Laurens","way_type":"residential","max_speed":null,"status":"open","user_ids":["51b0b927-3c8a-45b2-93de-bd878d1e5cf4"],"label_count":2,"audit_count":0,"outdated":false,"user_count":1,"first_label_date":"2026-09-17T01:42:08.692611Z","last_label_date":"2026-09-22T01:14:04.403862Z"}},{"type":"Feature","geometry":{"type":"LineString","coordinates":[[-94.847407,42.844566],[-94.847426,42.844073],[-94.847445,42.843591]]},"properties":{"street_edge_id":92,"osm_way_id":15996973,"region_id":1,"region_name":"Laurens","way_type":"residential","max_speed":null,"status":"open","user_ids":["51b0b927-3c8a-45b2-93de-bd878d1e5cf4"],"label_count":20,"audit_count":0,"outdated":false,"user_count":1,"first_label_date":"2026-09-17T01:41:03.438704Z","last_label_date":"2026-09-22T01:14:42.931697Z"}},{"type":"Feature","geometry":{"type":"LineString","coordinates":[[-94.8474646,42.842674],[-94.847463,42.843147],[-94.847445,42.843591]]},"properties":{"street_edge_id":93,"osm_way_id":15996973,"region_id":1,"region_name":"Laurens","way_type":"residential","max_speed":null,"status":"open","user_ids":[],"label_count":0,"audit_count":0,"outdated":false,"user_count":0,"first_label_date":null,"last_label_date":null}},{"type":"Feature","geometry":{"type":"LineString","coordinates":[[-94.847368,42.845567],[-94.847358,42.846606]]},"properties":{"street_edge_id":94,"osm_way_id":15996973,"region_id":1,"region_name":"Laurens","way_type":"residential","max_speed":null,"status":"open","user_ids":["51b0b927-3c8a-45b2-93de-bd878d1e5cf4","549187e0-redacted"],"label_count":43,"audit_count":1,"outdated":false,"user_count":2,"first_label_date":"2026-09-17T01:43:19.076704Z","last_label_date":"2026-09-22T01:15:10.936164Z"}},{"type":"Feature","geometry":{"type":"LineString","coordinates":[[-94.847368,42.845567],[-94.847407,42.844566]]},"properties":{"street_edge_id":95,"osm_way_id":15996973,"region_id":1,"region_name":"Laurens","way_type":"residential","max_speed":null,"status":"open","user_ids":["51b0b927-3c8a-45b2-93de-bd878d1e5cf4","549187e0-redacted"],"label_count":23,"audit_count":0,"outdated":false,"user_count":2,"first_label_date":"2026-09-17T01:41:03.438704Z","last_label_date":"2026-09-22T01:15:08.631034Z"}},{"type":"Feature","geometry":{"type":"LineString","coordinates":[[-94.856185,42.845736],[-94.855875,42.845733],[-94.85483,42.84572]]},"properties":{"street_edge_id":96,"osm_way_id":15997032,"region_id":1,"region_name":"Laurens","way_type":"residential","max_speed":null,"status":"open","user_ids":[],"label_count":0,"audit_count":0,"outdated":false,"user_count":0,"first_label_date":null,"last_label_date":null}},{"type":"Feature","geometry":{"type":"LineString","coordinates":[[-94.854251,42.845717],[-94.854278,42.845184]]},"properties":{"street_edge_id":97,"osm_way_id":15997046,"region_id":1,"region_name":"Laurens","way_type":"residential","max_speed":null,"status":"open","user_ids":["51b0b927-3c8a-45b2-93de-bd878d1e5cf4","549187e0-redacted"],"label_count":3,"audit_count":0,"outdated":false,"user_count":2,"first_label_date":"2026-09-17T01:45:26.287839Z","last_label_date":"2026-09-22T18:22:06.957Z"}},{"type":"Feature","geometry":{"type":"LineString","coordinates":[[-94.854251,42.845717],[-94.8542493,42.8458032],[-94.854243,42.84612],[-94.8542152,42.8467317]]},"properties":{"street_edge_id":98,"osm_way_id":15997046,"region_id":1,"region_name":"Laurens","way_type":"residential","max_speed":null,"status":"open","user_ids":["51b0b927-3c8a-45b2-93de-bd878d1e5cf4","549187e0-redacted"],"label_count":39,"audit_count":1,"outdated":false,"user_count":2,"first_label_date":"2026-09-17T01:42:23.124770Z","last_label_date":"2026-09-22T18:24:24.268Z"}},{"type":"Feature","geometry":{"type":"LineString","coordinates":[[-94.847171,42.850853],[-94.8471736,42.8507744],[-94.847205,42.849844]]},"properties":{"street_edge_id":99,"osm_way_id":15997048,"region_id":1,"region_name":"Laurens","way_type":"residential","max_speed":null,"status":"open","user_ids":["51b0b927-3c8a-45b2-93de-bd878d1e5cf4","549187e0-redacted"],"label_count":11,"audit_count":0,"outdated":false,"user_count":2,"first_label_date":"2026-09-17T01:42:53.224224Z","last_label_date":"2026-09-26T13:55:46.005Z"}},{"type":"Feature","geometry":{"type":"LineString","coordinates":[[-94.847135,42.851859],[-94.847171,42.850853]]},"properties":{"street_edge_id":100,"osm_way_id":15997048,"region_id":1,"region_name":"Laurens","way_type":"residential","max_speed":null,"status":"open","user_ids":["51b0b927-3c8a-45b2-93de-bd878d1e5cf4","549187e0-redacted"],"label_count":25,"audit_count":1,"outdated":false,"user_count":2,"first_label_date":"2026-09-17T01:41:30.775980Z","last_label_date":"2026-09-26T17:16:06.009Z"}},{"type":"Feature","geometry":{"type":"LineString","coordinates":[[-94.845017,42.844415],[-94.843859,42.844397]]},"properties":{"street_edge_id":101,"osm_way_id":15997149,"region_id":1,"region_name":"Laurens","way_type":"residential","max_speed":null,"status":"open","user_ids":["51b0b927-3c8a-45b2-93de-bd878d1e5cf4","549187e0-redacted"],"label_count":38,"audit_count":1,"outdated":false,"user_count":2,"first_label_date":"2026-09-17T01:42:26.030608Z","last_label_date":"2026-09-30T13:56:24Z"}},{"type":"Feature","geometry":{"type":"LineString","coordinates":[[-94.841471,42.84438],[-94.843859,42.844397]]},"properties":{"street_edge_id":102,"osm_way_id":15997149,"region_id":1,"region_name":"Laurens","way_type":"residential","max_speed":null,"status":"open","user_ids":["51b0b927-3c8a-45b2-93de-bd878d1e5cf4","549187e0-redacted"],"label_count":36,"audit_count":1,"outdated":false,"user_count":2,"first_label_date":"2026-09-17T01:42:29.140537Z","last_label_date":"2026-09-30T13:56:10.764Z"}},{"type":"Feature","geometry":{"type":"LineString","coordinates":[[-94.846207,42.844437],[-94.845017,42.844415]]},"properties":{"street_edge_id":103,"osm_way_id":15997149,"region_id":1,"region_name":"Laurens","way_type":"residential","max_speed":null,"status":"open","user_ids":["51b0b927-3c8a-45b2-93de-bd878d1e5cf4","549187e0-redacted"],"label_count":16,"audit_count":0,"outdated":false,"user_count":2,"first_label_date":"2026-09-17T01:40:49.595820Z","last_label_date":"2026-09-22T01:14:56.026282Z"}},{"type":"Feature","geometry":{"type":"LineString","coordinates":[[-94.854165,42.84807],[-94.856014,42.84827],[-94.856222,42.848287]]},"properties":{"street_edge_id":104,"osm_way_id":15997151,"region_id":1,"region_name":"Laurens","way_type":"tertiary","max_speed":null,"status":"open","user_ids":[],"label_count":0,"audit_count":0,"outdated":false,"user_count":0,"first_label_date":null,"last_label_date":null}},{"type":"Feature","geometry":{"type":"LineString","coordinates":[[-94.850036,42.847605],[-94.8499169,42.8475905],[-94.8493479,42.8475213],[-94.848673,42.847447]]},"properties":{"street_edge_id":105,"osm_way_id":15997151,"region_id":1,"region_name":"Laurens","way_type":"tertiary","max_speed":null,"status":"open","user_ids":["51b0b927-3c8a-45b2-93de-bd878d1e5cf4","549187e0-redacted"],"label_count":28,"audit_count":0,"outdated":false,"user_count":2,"first_label_date":"2026-09-17T01:42:02.756679Z","last_label_date":"2026-09-22T01:14:50.010375Z"}},{"type":"Feature","geometry":{"type":"LineString","coordinates":[[-94.854165,42.84807],[-94.853479,42.847992],[-94.852794,42.84791]]},"properties":{"street_edge_id":106,"osm_way_id":15997151,"region_id":1,"region_name":"Laurens","way_type":"tertiary","max_speed":null,"status":"open","user_ids":["549187e0-redacted"],"label_count":20,"audit_count":1,"outdated":false,"user_count":1,"first_label_date":"2026-09-22T18:26:22.590Z","last_label_date":"2026-09-22T18:30:28.621Z"}},{"type":"Feature","geometry":{"type":"LineString","coordinates":[[-94.8514208,42.8477476],[-94.8515542,42.8477631],[-94.8520969,42.8478265],[-94.852794,42.84791]]},"properties":{"street_edge_id":107,"osm_way_id":15997151,"region_id":1,"region_name":"Laurens","way_type":"tertiary","max_speed":null,"status":"open","user_ids":["51b0b927-3c8a-45b2-93de-bd878d1e5cf4","549187e0-redacted"],"label_count":11,"audit_count":0,"outdated":false,"user_count":2,"first_label_date":"2026-09-17T01:45:10.056558Z","last_label_date":"2026-09-23T16:48:28.378Z"}},{"type":"Feature","geometry":{"type":"LineString","coordinates":[[-94.8514208,42.8477476],[-94.8512913,42.8477349],[-94.8507621,42.8476836],[-94.850036,42.847605]]},"properties":{"street_edge_id":108,"osm_way_id":15997151,"region_id":1,"region_name":"Laurens","way_type":"tertiary","max_speed":null,"status":"open","user_ids":["51b0b927-3c8a-45b2-93de-bd878d1e5cf4","549187e0-redacted"],"label_count":27,"audit_count":0,"outdated":false,"user_count":2,"first_label_date":"2026-09-19T00:56:54.878Z","last_label_date":"2026-09-23T16:48:03.398Z"}},{"type":"Feature","geometry":{"type":"LineString","coordinates":[[-94.847171,42.850853],[-94.848207,42.85089],[-94.848542,42.850894]]},"properties":{"street_edge_id":109,"osm_way_id":15997258,"region_id":1,"region_name":"Laurens","way_type":"residential","max_speed":null,"status":"open","user_ids":["51b0b927-3c8a-45b2-93de-bd878d1e5cf4","549187e0-redacted"],"label_count":41,"audit_count":1,"outdated":false,"user_count":2,"first_label_date":"2026-09-17T01:41:14.579968Z","last_label_date":"2026-09-26T13:56:15.300Z"}},{"type":"Feature","geometry":{"type":"LineString","coordinates":[[-94.847171,42.850853],[-94.845417,42.850828],[-94.845345,42.85082],[-94.845246,42.850797],[-94.845135,42.850747],[-94.845047,42.850687],[-94.844992,42.850636],[-94.844963,42.850553],[-94.844937,42.850394],[-94.844944,42.849816]]},"properties":{"street_edge_id":110,"osm_way_id":15997258,"region_id":1,"region_name":"Laurens","way_type":"residential","max_speed":null,"status":"open","user_ids":["51b0b927-3c8a-45b2-93de-bd878d1e5cf4"],"label_count":12,"audit_count":0,"outdated":false,"user_count":1,"first_label_date":"2026-09-17T01:46:29.078671Z","last_label_date":"2026-09-22T01:14:53.935982Z"}},{"type":"Feature","geometry":{"type":"LineString","coordinates":[[-94.856185,42.845736],[-94.856179,42.845472],[-94.8561749,42.8453628]]},"properties":{"street_edge_id":111,"osm_way_id":15997341,"region_id":1,"region_name":"Laurens","way_type":"secondary","max_speed":null,"status":"open","user_ids":[],"label_count":0,"audit_count":0,"outdated":false,"user_count":0,"first_label_date":null,"last_label_date":null}},{"type":"Feature","geometry":{"type":"LineString","coordinates":[[-94.856135,42.843727],[-94.856145,42.844134],[-94.856159,42.8447362],[-94.8561559,42.8448934],[-94.8561749,42.8453628]]},"properties":{"street_edge_id":112,"osm_way_id":15997341,"region_id":1,"region_name":"Laurens","way_type":"secondary","max_speed":null,"status":"open","user_ids":["51b0b927-3c8a-45b2-93de-bd878d1e5cf4"],"label_count":1,"audit_count":0,"outdated":false,"user_count":1,"first_label_date":"2026-09-22T01:14:25.146759Z","last_label_date":"2026-09-22T01:14:25.146759Z"}},{"type":"Feature","geometry":{"type":"LineString","coordinates":[[-94.856185,42.845736],[-94.8561917,42.84602368],[-94.856204,42.846552],[-94.8562036,42.8466046],[-94.85620206,42.84679025],[-94.8562,42.847039]]},"properties":{"street_edge_id":113,"osm_way_id":15997341,"region_id":1,"region_name":"Laurens","way_type":"secondary","max_speed":null,"status":"open","user_ids":[],"label_count":0,"audit_count":0,"outdated":false,"user_count":0,"first_label_date":null,"last_label_date":null}},{"type":"Feature","geometry":{"type":"LineString","coordinates":[[-94.856135,42.843727],[-94.85610968,42.84277723],[-94.8561094,42.8427666]]},"properties":{"street_edge_id":114,"osm_way_id":15997341,"region_id":1,"region_name":"Laurens","way_type":"secondary","max_speed":null,"status":"open","user_ids":[],"label_count":0,"audit_count":0,"outdated":false,"user_count":0,"first_label_date":null,"last_label_date":null}},{"type":"Feature","geometry":{"type":"LineString","coordinates":[[-94.8498438,42.8519219],[-94.849914,42.850914]]},"properties":{"street_edge_id":115,"osm_way_id":15997343,"region_id":1,"region_name":"Laurens","way_type":"residential","max_speed":null,"status":"open","user_ids":["51b0b927-3c8a-45b2-93de-bd878d1e5cf4","549187e0-redacted"],"label_count":11,"audit_count":0,"outdated":false,"user_count":2,"first_label_date":"2026-09-22T01:14:45.382285Z","last_label_date":"2026-09-24T23:33:08.889Z"}},{"type":"Feature","geometry":{"type":"LineString","coordinates":[[-94.8499414,42.8499095],[-94.849914,42.850914]]},"properties":{"street_edge_id":116,"osm_way_id":15997343,"region_id":1,"region_name":"Laurens","way_type":"residential","max_speed":null,"status":"open","user_ids":["51b0b927-3c8a-45b2-93de-bd878d1e5cf4","549187e0-redacted"],"label_count":39,"audit_count":1,"outdated":false,"user_count":2,"first_label_date":"2026-09-17T01:41:22.163376Z","last_label_date":"2026-09-25T14:05:31.128Z"}},{"type":"Feature","geometry":{"type":"LineString","coordinates":[[-94.8499414,42.8499095],[-94.849966,42.849053]]},"properties":{"street_edge_id":117,"osm_way_id":15997343,"region_id":1,"region_name":"Laurens","way_type":"residential","max_speed":null,"status":"open","user_ids":["51b0b927-3c8a-45b2-93de-bd878d1e5cf4","549187e0-redacted"],"label_count":27,"audit_count":0,"outdated":false,"user_count":2,"first_label_date":"2026-09-17T01:43:08.975386Z","last_label_date":"2026-09-25T14:05:57.807Z"}},{"type":"Feature","geometry":{"type":"LineString","coordinates":[[-94.849845,42.85251],[-94.849844,42.8520045],[-94.8498438,42.8519219]]},"properties":{"street_edge_id":118,"osm_way_id":15997343,"region_id":1,"region_name":"Laurens","way_type":"residential","max_speed":null,"status":"open","user_ids":["51b0b927-3c8a-45b2-93de-bd878d1e5cf4"],"label_count":19,"audit_count":0,"outdated":false,"user_count":1,"first_label_date":"2026-09-17T01:41:40.557574Z","last_label_date":"2026-09-22T01:15:13.710421Z"}},{"type":"Feature","geometry":{"type":"LineString","coordinates":[[-94.847205,42.849844],[-94.846277,42.849828]]},"properties":{"street_edge_id":119,"osm_way_id":15997380,"region_id":1,"region_name":"Laurens","way_type":"tertiary","max_speed":null,"status":"open","user_ids":["51b0b927-3c8a-45b2-93de-bd878d1e5cf4"],"label_count":4,"audit_count":0,"outdated":false,"user_count":1,"first_label_date":"2026-09-17T01:44:44.590393Z","last_label_date":"2026-09-22T01:14:49.400870Z"}},{"type":"Feature","geometry":{"type":"LineString","coordinates":[[-94.844944,42.849816],[-94.845517,42.849817],[-94.846277,42.849828]]},"properties":{"street_edge_id":120,"osm_way_id":15997380,"region_id":1,"region_name":"Laurens","way_type":"tertiary","max_speed":null,"status":"open","user_ids":["51b0b927-3c8a-45b2-93de-bd878d1e5cf4"],"label_count":2,"audit_count":0,"outdated":false,"user_count":1,"first_label_date":"2026-09-22T01:15:00.496931Z","last_label_date":"2026-09-22T01:15:00.496931Z"}},{"type":"Feature","geometry":{"type":"LineString","coordinates":[[-94.847205,42.849844],[-94.8482,42.849864],[-94.84859,42.849875]]},"properties":{"street_edge_id":121,"osm_way_id":15997380,"region_id":1,"region_name":"Laurens","way_type":"tertiary","max_speed":null,"status":"open","user_ids":["51b0b927-3c8a-45b2-93de-bd878d1e5cf4"],"label_count":17,"audit_count":0,"outdated":false,"user_count":1,"first_label_date":"2026-09-17T01:40:47.955445Z","last_label_date":"2026-09-22T01:14:48.504417Z"}},{"type":"Feature","geometry":{"type":"LineString","coordinates":[[-94.84369,42.849811],[-94.843611,42.849811],[-94.843031,42.849808],[-94.842541,42.8498]]},"properties":{"street_edge_id":122,"osm_way_id":15997380,"region_id":1,"region_name":"Laurens","way_type":"tertiary","max_speed":null,"status":"open","user_ids":["51b0b927-3c8a-45b2-93de-bd878d1e5cf4"],"label_count":2,"audit_count":0,"outdated":false,"user_count":1,"first_label_date":"2026-09-17T01:44:20.608309Z","last_label_date":"2026-09-22T01:15:00.055362Z"}},{"type":"Feature","geometry":{"type":"LineString","coordinates":[[-94.844944,42.849816],[-94.84369,42.849811]]},"properties":{"street_edge_id":123,"osm_way_id":15997380,"region_id":1,"region_name":"Laurens","way_type":"tertiary","max_speed":null,"status":"open","user_ids":["51b0b927-3c8a-45b2-93de-bd878d1e5cf4"],"label_count":2,"audit_count":0,"outdated":false,"user_count":1,"first_label_date":"2026-09-22T01:14:02.292074Z","last_label_date":"2026-09-22T01:14:02.292074Z"}},{"type":"Feature","geometry":{"type":"LineString","coordinates":[[-94.842541,42.8498],[-94.842291,42.849796]]},"properties":{"street_edge_id":124,"osm_way_id":15997380,"region_id":1,"region_name":"Laurens","way_type":"tertiary","max_speed":null,"status":"open","user_ids":[],"label_count":0,"audit_count":0,"outdated":false,"user_count":0,"first_label_date":null,"last_label_date":null}},{"type":"Feature","geometry":{"type":"LineString","coordinates":[[-94.84147,42.8497817],[-94.842291,42.849796]]},"properties":{"street_edge_id":125,"osm_way_id":15997380,"region_id":1,"region_name":"Laurens","way_type":"tertiary","max_speed":null,"status":"open","user_ids":[],"label_count":0,"audit_count":0,"outdated":false,"user_count":0,"first_label_date":null,"last_label_date":null}},{"type":"Feature","geometry":{"type":"LineString","coordinates":[[-94.856278,42.8500459],[-94.85626414,42.85004559],[-94.855646,42.8500319]]},"properties":{"street_edge_id":126,"osm_way_id":15997383,"region_id":1,"region_name":"Laurens","way_type":"tertiary","max_speed":null,"status":"open","user_ids":[],"label_count":0,"audit_count":0,"outdated":false,"user_count":0,"first_label_date":null,"last_label_date":null}},{"type":"Feature","geometry":{"type":"LineString","coordinates":[[-94.8540792,42.849997],[-94.8541891,42.8499994],[-94.8547771,42.8500125],[-94.855646,42.8500319]]},"properties":{"street_edge_id":127,"osm_way_id":15997383,"region_id":1,"region_name":"Laurens","way_type":"tertiary","max_speed":null,"status":"open","user_ids":["51b0b927-3c8a-45b2-93de-bd878d1e5cf4"],"label_count":12,"audit_count":0,"outdated":false,"user_count":1,"first_label_date":"2026-09-17T01:42:29.505804Z","last_label_date":"2026-09-22T01:15:00.340416Z"}},{"type":"Feature","geometry":{"type":"LineString","coordinates":[[-94.8499414,42.8499095],[-94.8486971,42.8498777],[-94.84859,42.849875]]},"properties":{"street_edge_id":128,"osm_way_id":15997383,"region_id":1,"region_name":"Laurens","way_type":"tertiary","max_speed":null,"status":"open","user_ids":["51b0b927-3c8a-45b2-93de-bd878d1e5cf4","549187e0-redacted"],"label_count":48,"audit_count":1,"outdated":false,"user_count":2,"first_label_date":"2026-09-17T01:40:47.955445Z","last_label_date":"2026-09-26T13:47:06.338Z"}},{"type":"Feature","geometry":{"type":"LineString","coordinates":[[-94.8527253,42.8499669],[-94.8519903,42.8499506],[-94.8513372,42.8499361]]},"properties":{"street_edge_id":129,"osm_way_id":15997383,"region_id":1,"region_name":"Laurens","way_type":"tertiary","max_speed":null,"status":"open","user_ids":["51b0b927-3c8a-45b2-93de-bd878d1e5cf4","549187e0-redacted"],"label_count":31,"audit_count":0,"outdated":false,"user_count":2,"first_label_date":"2026-09-17T01:41:49.772484Z","last_label_date":"2026-09-24T13:43:11.927Z"}},{"type":"Feature","geometry":{"type":"LineString","coordinates":[[-94.8499414,42.8499095],[-94.8506629,42.8499211],[-94.8513372,42.8499361]]},"properties":{"street_edge_id":130,"osm_way_id":15997383,"region_id":1,"region_name":"Laurens","way_type":"tertiary","max_speed":null,"status":"open","user_ids":["51b0b927-3c8a-45b2-93de-bd878d1e5cf4","549187e0-redacted"],"label_count":25,"audit_count":0,"outdated":false,"user_count":2,"first_label_date":"2026-09-17T01:41:07.904349Z","last_label_date":"2026-09-25T14:05:39.005Z"}},{"type":"Feature","geometry":{"type":"LineString","coordinates":[[-94.8540792,42.849997],[-94.8534502,42.849983],[-94.8528437,42.8499695],[-94.8527253,42.8499669]]},"properties":{"street_edge_id":131,"osm_way_id":15997383,"region_id":1,"region_name":"Laurens","way_type":"tertiary","max_speed":null,"status":"open","user_ids":["51b0b927-3c8a-45b2-93de-bd878d1e5cf4"],"label_count":11,"audit_count":0,"outdated":false,"user_count":1,"first_label_date":"2026-09-17T01:41:32.599748Z","last_label_date":"2026-09-22T01:14:56.574035Z"}},{"type":"Feature","geometry":{"type":"LineString","coordinates":[[-94.856135,42.843727],[-94.856052,42.843717],[-94.855974,42.843701],[-94.855912,42.843694],[-94.855827,42.84369],[-94.854834,42.843683],[-94.854779,42.843667]]},"properties":{"street_edge_id":132,"osm_way_id":15997407,"region_id":1,"region_name":"Laurens","way_type":"residential","max_speed":null,"status":"open","user_ids":[],"label_count":0,"audit_count":0,"outdated":false,"user_count":0,"first_label_date":null,"last_label_date":null}},{"type":"Feature","geometry":{"type":"LineString","coordinates":[[-94.8461626,42.84265],[-94.846186,42.843107],[-94.846193,42.843596]]},"properties":{"street_edge_id":133,"osm_way_id":15997517,"region_id":1,"region_name":"Laurens","way_type":"residential","max_speed":null,"status":"open","user_ids":["51b0b927-3c8a-45b2-93de-bd878d1e5cf4","549187e0-redacted"],"label_count":5,"audit_count":0,"outdated":false,"user_count":2,"first_label_date":"2026-09-19T23:24:56.542Z","last_label_date":"2026-09-22T01:14:43.389943Z"}},{"type":"Feature","geometry":{"type":"LineString","coordinates":[[-94.846224,42.845542],[-94.84624,42.846574]]},"properties":{"street_edge_id":134,"osm_way_id":15997517,"region_id":1,"region_name":"Laurens","way_type":"residential","max_speed":null,"status":"open","user_ids":["51b0b927-3c8a-45b2-93de-bd878d1e5cf4","549187e0-redacted"],"label_count":38,"audit_count":1,"outdated":false,"user_count":2,"first_label_date":"2026-09-17T01:41:14.068118Z","last_label_date":"2026-09-22T01:15:11.164371Z"}},{"type":"Feature","geometry":{"type":"LineString","coordinates":[[-94.846224,42.845542],[-94.846208,42.844549]]},"properties":{"street_edge_id":135,"osm_way_id":15997517,"region_id":1,"region_name":"Laurens","way_type":"residential","max_speed":null,"status":"open","user_ids":["51b0b927-3c8a-45b2-93de-bd878d1e5cf4","549187e0-redacted"],"label_count":37,"audit_count":1,"outdated":false,"user_count":2,"first_label_date":"2026-09-17T01:41:07.539948Z","last_label_date":"2026-09-22T01:15:14.223218Z"}},{"type":"Feature","geometry":{"type":"LineString","coordinates":[[-94.846208,42.844549],[-94.846207,42.844437],[-94.846201,42.844056],[-94.846193,42.843596]]},"properties":{"street_edge_id":136,"osm_way_id":15997517,"region_id":1,"region_name":"Laurens","way_type":"residential","max_speed":null,"status":"open","user_ids":["51b0b927-3c8a-45b2-93de-bd878d1e5cf4","549187e0-redacted"],"label_count":24,"audit_count":1,"outdated":false,"user_count":2,"first_label_date":"2026-09-17T01:41:56.303886Z","last_label_date":"2026-09-22T01:15:09.915270Z"}},{"type":"Feature","geometry":{"type":"LineString","coordinates":[[-94.8498438,42.8519219],[-94.8486051,42.8518989],[-94.8484991,42.8518969]]},"properties":{"street_edge_id":137,"osm_way_id":15997533,"region_id":1,"region_name":"Laurens","way_type":"residential","max_speed":null,"status":"open","user_ids":["51b0b927-3c8a-45b2-93de-bd878d1e5cf4","549187e0-redacted"],"label_count":26,"audit_count":0,"outdated":false,"user_count":2,"first_label_date":"2026-09-17T01:42:01.349097Z","last_label_date":"2026-09-26T17:45:43.090Z"}},{"type":"Feature","geometry":{"type":"LineString","coordinates":[[-94.8518476,42.8519592],[-94.8514123,42.8519511],[-94.8512524,42.8519481]]},"properties":{"street_edge_id":138,"osm_way_id":15997533,"region_id":1,"region_name":"Laurens","way_type":"residential","max_speed":null,"status":"open","user_ids":["18b26a38-redacted","51b0b927-3c8a-45b2-93de-bd878d1e5cf4"],"label_count":19,"audit_count":1,"outdated":false,"user_count":2,"first_label_date":"2026-09-17T01:44:05.111733Z","last_label_date":"2026-09-24T22:55:23.940Z"}},{"type":"Feature","geometry":{"type":"LineString","coordinates":[[-94.8498438,42.8519219],[-94.850594,42.8519358],[-94.8511232,42.8519457],[-94.8512524,42.8519481]]},"properties":{"street_edge_id":139,"osm_way_id":15997533,"region_id":1,"region_name":"Laurens","way_type":"residential","max_speed":null,"status":"open","user_ids":["18b26a38-redacted","51b0b927-3c8a-45b2-93de-bd878d1e5cf4"],"label_count":23,"audit_count":0,"outdated":false,"user_count":2,"first_label_date":"2026-09-17T01:41:17.858221Z","last_label_date":"2026-09-24T22:55:47.861Z"}},{"type":"Feature","geometry":{"type":"LineString","coordinates":[[-94.8526504,42.8519741],[-94.8519326,42.8519607],[-94.8518476,42.8519592]]},"properties":{"street_edge_id":140,"osm_way_id":15997533,"region_id":1,"region_name":"Laurens","way_type":"residential","max_speed":null,"status":"open","user_ids":["51b0b927-3c8a-45b2-93de-bd878d1e5cf4"],"label_count":13,"audit_count":0,"outdated":false,"user_count":1,"first_label_date":"2026-09-17T01:46:43.278936Z","last_label_date":"2026-09-22T01:15:13.194211Z"}},{"type":"Feature","geometry":{"type":"LineString","coordinates":[[-94.8540053,42.8519993],[-94.8533262,42.8519867],[-94.8526504,42.8519741]]},"properties":{"street_edge_id":141,"osm_way_id":15997533,"region_id":1,"region_name":"Laurens","way_type":"residential","max_speed":null,"status":"open","user_ids":["51b0b927-3c8a-45b2-93de-bd878d1e5cf4"],"label_count":21,"audit_count":0,"outdated":false,"user_count":1,"first_label_date":"2026-09-17T01:41:35.801105Z","last_label_date":"2026-09-22T01:15:12.250027Z"}},{"type":"Feature","geometry":{"type":"LineString","coordinates":[[-94.8562483,42.852041],[-94.8546733,42.8520117],[-94.8540053,42.8519993]]},"properties":{"street_edge_id":142,"osm_way_id":15997533,"region_id":1,"region_name":"Laurens","way_type":"residential","max_speed":null,"status":"open","user_ids":["51b0b927-3c8a-45b2-93de-bd878d1e5cf4"],"label_count":8,"audit_count":0,"outdated":false,"user_count":1,"first_label_date":"2026-09-17T01:40:50.228519Z","last_label_date":"2026-09-22T01:15:10.104529Z"}},{"type":"Feature","geometry":{"type":"LineString","coordinates":[[-94.842291,42.849796],[-94.84227,42.8487978]]},"properties":{"street_edge_id":143,"osm_way_id":15997558,"region_id":1,"region_name":"Laurens","way_type":"residential","max_speed":null,"status":"open","user_ids":["51b0b927-3c8a-45b2-93de-bd878d1e5cf4"],"label_count":2,"audit_count":0,"outdated":false,"user_count":1,"first_label_date":"2026-09-17T01:41:55.080304Z","last_label_date":"2026-09-22T01:14:20.122762Z"}},{"type":"Feature","geometry":{"type":"LineString","coordinates":[[-94.8526504,42.8519741],[-94.852568,42.8536],[-94.85258677,42.85364545],[-94.852587,42.853646],[-94.85260572,42.8536668],[-94.8526183,42.85368078],[-94.852623,42.853686],[-94.85265075,42.8537006],[-94.85268,42.853716],[-94.852761,42.853738],[-94.852908,42.853748],[-94.853245,42.853741],[-94.85341,42.853738],[-94.853941,42.853742]]},"properties":{"street_edge_id":144,"osm_way_id":15997565,"region_id":1,"region_name":"Laurens","way_type":"residential","max_speed":null,"status":"open","user_ids":["51b0b927-3c8a-45b2-93de-bd878d1e5cf4"],"label_count":9,"audit_count":0,"outdated":false,"user_count":1,"first_label_date":"2026-09-17T01:45:03.949465Z","last_label_date":"2026-09-22T01:15:12.758651Z"}},{"type":"Feature","geometry":{"type":"LineString","coordinates":[[-94.8527253,42.8499669],[-94.8526762,42.8509723]]},"properties":{"street_edge_id":145,"osm_way_id":15997565,"region_id":1,"region_name":"Laurens","way_type":"residential","max_speed":null,"status":"open","user_ids":["51b0b927-3c8a-45b2-93de-bd878d1e5cf4"],"label_count":9,"audit_count":0,"outdated":false,"user_count":1,"first_label_date":"2026-09-17T01:41:27.084011Z","last_label_date":"2026-09-22T01:14:54.808210Z"}},{"type":"Feature","geometry":{"type":"LineString","coordinates":[[-94.8526504,42.8519741],[-94.8526739,42.8510611],[-94.8526762,42.8509723]]},"properties":{"street_edge_id":146,"osm_way_id":15997565,"region_id":1,"region_name":"Laurens","way_type":"residential","max_speed":null,"status":"open","user_ids":["51b0b927-3c8a-45b2-93de-bd878d1e5cf4"],"label_count":11,"audit_count":0,"outdated":false,"user_count":1,"first_label_date":"2026-09-17T01:41:58.478794Z","last_label_date":"2026-09-22T01:14:46.538379Z"}},{"type":"Feature","geometry":{"type":"LineString","coordinates":[[-94.8527722,42.8486889],[-94.8527253,42.8499669]]},"properties":{"street_edge_id":147,"osm_way_id":15997565,"region_id":1,"region_name":"Laurens","way_type":"residential","max_speed":null,"status":"open","user_ids":["51b0b927-3c8a-45b2-93de-bd878d1e5cf4"],"label_count":3,"audit_count":0,"outdated":false,"user_count":1,"first_label_date":"2026-09-17T01:45:18.107278Z","last_label_date":"2026-09-22T01:14:09.790704Z"}},{"type":"Feature","geometry":{"type":"LineString","coordinates":[[-94.8540053,42.8519993],[-94.853941,42.853742]]},"properties":{"street_edge_id":148,"osm_way_id":15997573,"region_id":1,"region_name":"Laurens","way_type":"residential","max_speed":null,"status":"open","user_ids":["51b0b927-3c8a-45b2-93de-bd878d1e5cf4"],"label_count":14,"audit_count":0,"outdated":false,"user_count":1,"first_label_date":"2026-09-17T01:41:35.801105Z","last_label_date":"2026-09-22T01:15:10.104529Z"}},{"type":"Feature","geometry":{"type":"LineString","coordinates":[[-94.8540792,42.849997],[-94.8540421,42.8510011]]},"properties":{"street_edge_id":149,"osm_way_id":15997573,"region_id":1,"region_name":"Laurens","way_type":"residential","max_speed":null,"status":"open","user_ids":["51b0b927-3c8a-45b2-93de-bd878d1e5cf4"],"label_count":15,"audit_count":0,"outdated":false,"user_count":1,"first_label_date":"2026-09-17T01:42:11.006780Z","last_label_date":"2026-09-22T01:15:09.709196Z"}},{"type":"Feature","geometry":{"type":"LineString","coordinates":[[-94.8540053,42.8519993],[-94.8540388,42.8510893],[-94.8540421,42.8510011]]},"properties":{"street_edge_id":150,"osm_way_id":15997573,"region_id":1,"region_name":"Laurens","way_type":"residential","max_speed":null,"status":"open","user_ids":["51b0b927-3c8a-45b2-93de-bd878d1e5cf4"],"label_count":12,"audit_count":0,"outdated":false,"user_count":1,"first_label_date":"2026-09-17T01:40:50.228519Z","last_label_date":"2026-09-22T01:14:45.800732Z"}},{"type":"Feature","geometry":{"type":"LineString","coordinates":[[-94.854115,42.849026],[-94.8540792,42.849997]]},"properties":{"street_edge_id":151,"osm_way_id":15997573,"region_id":1,"region_name":"Laurens","way_type":"residential","max_speed":null,"status":"open","user_ids":["51b0b927-3c8a-45b2-93de-bd878d1e5cf4"],"label_count":3,"audit_count":0,"outdated":false,"user_count":1,"first_label_date":"2026-09-22T01:14:41.510850Z","last_label_date":"2026-09-22T01:14:55.625614Z"}},{"type":"Feature","geometry":{"type":"LineString","coordinates":[[-94.854165,42.84807],[-94.854192,42.847265],[-94.8542152,42.8467317]]},"properties":{"street_edge_id":152,"osm_way_id":15997604,"region_id":1,"region_name":"Laurens","way_type":"residential","max_speed":null,"status":"open","user_ids":["51b0b927-3c8a-45b2-93de-bd878d1e5cf4","549187e0-redacted"],"label_count":46,"audit_count":1,"outdated":false,"user_count":2,"first_label_date":"2026-09-17T01:42:23.124770Z","last_label_date":"2026-09-22T18:26:23.793Z"}},{"type":"Feature","geometry":{"type":"LineString","coordinates":[[-94.856278,42.8500459],[-94.856256,42.849295],[-94.85624767,42.84905423],[-94.856241,42.8488615],[-94.856222,42.848287]]},"properties":{"street_edge_id":153,"osm_way_id":15997643,"region_id":1,"region_name":"Laurens","way_type":"tertiary","max_speed":null,"status":"open","user_ids":["51b0b927-3c8a-45b2-93de-bd878d1e5cf4"],"label_count":1,"audit_count":0,"outdated":false,"user_count":1,"first_label_date":"2026-09-22T01:14:37.306038Z","last_label_date":"2026-09-22T01:14:37.306038Z"}},{"type":"Feature","geometry":{"type":"LineString","coordinates":[[-94.8562,42.847039],[-94.856198,42.847292],[-94.856196,42.847634],[-94.856222,42.848287]]},"properties":{"street_edge_id":154,"osm_way_id":15997643,"region_id":1,"region_name":"Laurens","way_type":"tertiary","max_speed":null,"status":"open","user_ids":["51b0b927-3c8a-45b2-93de-bd878d1e5cf4"],"label_count":1,"audit_count":0,"outdated":false,"user_count":1,"first_label_date":"2026-09-22T01:13:55.318930Z","last_label_date":"2026-09-22T01:13:55.318930Z"}},{"type":"Feature","geometry":{"type":"LineString","coordinates":[[-94.8562483,42.852041],[-94.8562371,42.8527641],[-94.856216,42.853782]]},"properties":{"street_edge_id":155,"osm_way_id":15997643,"region_id":1,"region_name":"Laurens","way_type":"tertiary","max_speed":null,"status":"open","user_ids":[],"label_count":0,"audit_count":0,"outdated":false,"user_count":0,"first_label_date":null,"last_label_date":null}},{"type":"Feature","geometry":{"type":"LineString","coordinates":[[-94.8562483,42.852041],[-94.85624916,42.85199204],[-94.8562658,42.851048]]},"properties":{"street_edge_id":156,"osm_way_id":15997643,"region_id":1,"region_name":"Laurens","way_type":"tertiary","max_speed":null,"status":"open","user_ids":[],"label_count":0,"audit_count":0,"outdated":false,"user_count":0,"first_label_date":null,"last_label_date":null}},{"type":"Feature","geometry":{"type":"LineString","coordinates":[[-94.851778,42.853526],[-94.8518438,42.8520448],[-94.8518476,42.8519592]]},"properties":{"street_edge_id":157,"osm_way_id":15997676,"region_id":1,"region_name":"Laurens","way_type":"residential","max_speed":null,"status":"open","user_ids":["18b26a38-redacted","51b0b927-3c8a-45b2-93de-bd878d1e5cf4"],"label_count":24,"audit_count":1,"outdated":false,"user_count":2,"first_label_date":"2026-09-17T01:41:39.222352Z","last_label_date":"2026-09-24T22:54:23.604Z"}},{"type":"Feature","geometry":{"type":"LineString","coordinates":[[-94.847407,42.844566],[-94.848112,42.844577],[-94.84877,42.84459]]},"properties":{"street_edge_id":158,"osm_way_id":15997794,"region_id":1,"region_name":"Laurens","way_type":"residential","max_speed":null,"status":"open","user_ids":["51b0b927-3c8a-45b2-93de-bd878d1e5cf4"],"label_count":33,"audit_count":0,"outdated":false,"user_count":1,"first_label_date":"2026-09-17T01:42:05.002823Z","last_label_date":"2026-09-22T01:15:06.004987Z"}},{"type":"Feature","geometry":{"type":"LineString","coordinates":[[-94.845042,42.845518],[-94.843878,42.845492]]},"properties":{"street_edge_id":159,"osm_way_id":15997796,"region_id":1,"region_name":"Laurens","way_type":"residential","max_speed":null,"status":"open","user_ids":["51b0b927-3c8a-45b2-93de-bd878d1e5cf4","549187e0-redacted"],"label_count":14,"audit_count":0,"outdated":false,"user_count":2,"first_label_date":"2026-09-17T01:43:51.567606Z","last_label_date":"2026-09-30T13:59:48.104Z"}},{"type":"Feature","geometry":{"type":"LineString","coordinates":[[-94.841485,42.845445],[-94.843878,42.845492]]},"properties":{"street_edge_id":160,"osm_way_id":15997796,"region_id":1,"region_name":"Laurens","way_type":"residential","max_speed":null,"status":"open","user_ids":["51b0b927-3c8a-45b2-93de-bd878d1e5cf4","549187e0-redacted"],"label_count":44,"audit_count":1,"outdated":false,"user_count":2,"first_label_date":"2026-09-17T01:41:23.135459Z","last_label_date":"2026-09-22T01:15:10.220875Z"}},{"type":"Feature","geometry":{"type":"LineString","coordinates":[[-94.847368,42.845567],[-94.84805,42.845585],[-94.848731,42.845603]]},"properties":{"street_edge_id":161,"osm_way_id":15997796,"region_id":1,"region_name":"Laurens","way_type":"residential","max_speed":null,"status":"open","user_ids":["51b0b927-3c8a-45b2-93de-bd878d1e5cf4","549187e0-redacted"],"label_count":36,"audit_count":0,"outdated":false,"user_count":2,"first_label_date":"2026-09-17T01:41:01.919432Z","last_label_date":"2026-09-22T01:15:10.936164Z"}},{"type":"Feature","geometry":{"type":"LineString","coordinates":[[-94.846224,42.845542],[-94.845042,42.845518]]},"properties":{"street_edge_id":162,"osm_way_id":15997796,"region_id":1,"region_name":"Laurens","way_type":"residential","max_speed":null,"status":"open","user_ids":["51b0b927-3c8a-45b2-93de-bd878d1e5cf4","549187e0-redacted"],"label_count":30,"audit_count":1,"outdated":false,"user_count":2,"first_label_date":"2026-09-17T01:40:46.338877Z","last_label_date":"2026-09-22T01:15:12.986037Z"}},{"type":"Feature","geometry":{"type":"LineString","coordinates":[[-94.846224,42.845542],[-94.847368,42.845567]]},"properties":{"street_edge_id":163,"osm_way_id":15997796,"region_id":1,"region_name":"Laurens","way_type":"residential","max_speed":null,"status":"open","user_ids":["51b0b927-3c8a-45b2-93de-bd878d1e5cf4","549187e0-redacted"],"label_count":17,"audit_count":1,"outdated":false,"user_count":2,"first_label_date":"2026-09-17T01:41:28.062304Z","last_label_date":"2026-09-22T01:13:50.822637Z"}},{"type":"Feature","geometry":{"type":"LineString","coordinates":[[-94.847135,42.851859],[-94.8484991,42.8518969]]},"properties":{"street_edge_id":164,"osm_way_id":15997804,"region_id":1,"region_name":"Laurens","way_type":"residential","max_speed":null,"status":"open","user_ids":["51b0b927-3c8a-45b2-93de-bd878d1e5cf4","549187e0-redacted"],"label_count":33,"audit_count":1,"outdated":false,"user_count":2,"first_label_date":"2026-09-17T01:41:54.512690Z","last_label_date":"2026-09-26T17:42:03.900Z"}},{"type":"Feature","geometry":{"type":"LineString","coordinates":[[-94.842541,42.8498],[-94.842523,42.850549],[-94.842513,42.851285],[-94.842516,42.851537],[-94.842544,42.851668],[-94.842622,42.851834],[-94.842706,42.851963],[-94.842817,42.852065],[-94.843038,42.852228],[-94.843435,42.85236],[-94.843713,42.852388],[-94.844029,42.852371],[-94.844194,42.852331],[-94.844369,42.852251],[-94.844581,42.852129],[-94.844635,42.852103]]},"properties":{"street_edge_id":165,"osm_way_id":15997804,"region_id":1,"region_name":"Laurens","way_type":"residential","max_speed":null,"status":"open","user_ids":["51b0b927-3c8a-45b2-93de-bd878d1e5cf4"],"label_count":5,"audit_count":0,"outdated":false,"user_count":1,"first_label_date":"2026-09-22T01:13:54.823960Z","last_label_date":"2026-09-22T01:14:50.217708Z"}},{"type":"Feature","geometry":{"type":"LineString","coordinates":[[-94.847135,42.851859],[-94.8470321,42.8518576],[-94.846634,42.851852],[-94.846058,42.851839],[-94.8454926,42.8518352],[-94.845281,42.8518586],[-94.845147,42.851896],[-94.845057,42.851914],[-94.844843,42.851999],[-94.844635,42.852103]]},"properties":{"street_edge_id":166,"osm_way_id":15997804,"region_id":1,"region_name":"Laurens","way_type":"residential","max_speed":null,"status":"open","user_ids":["51b0b927-3c8a-45b2-93de-bd878d1e5cf4","549187e0-redacted"],"label_count":5,"audit_count":0,"outdated":false,"user_count":2,"first_label_date":"2026-09-17T01:47:19.863596Z","last_label_date":"2026-09-26T17:17:10.997Z"}},{"type":"Feature","geometry":{"type":"LineString","coordinates":[[-94.856222,42.848287],[-94.8569379,42.8477696],[-94.857001,42.847724]]},"properties":{"street_edge_id":167,"osm_way_id":479778923,"region_id":1,"region_name":"Laurens","way_type":"unclassified","max_speed":null,"status":"open","user_ids":[],"label_count":0,"audit_count":0,"outdated":false,"user_count":0,"first_label_date":null,"last_label_date":null}},{"type":"Feature","geometry":{"type":"LineString","coordinates":[[-94.8513372,42.8499361],[-94.8512943,42.8509431]]},"properties":{"street_edge_id":168,"osm_way_id":1474028772,"region_id":1,"region_name":"Laurens","way_type":"residential","max_speed":null,"status":"open","user_ids":["51b0b927-3c8a-45b2-93de-bd878d1e5cf4","549187e0-redacted"],"label_count":32,"audit_count":1,"outdated":false,"user_count":2,"first_label_date":"2026-09-17T01:41:49.772484Z","last_label_date":"2026-09-24T23:23:25.319Z"}},{"type":"Feature","geometry":{"type":"LineString","coordinates":[[-94.8512524,42.8519481],[-94.8512904,42.8510358],[-94.8512943,42.8509431]]},"properties":{"street_edge_id":169,"osm_way_id":1474028772,"region_id":1,"region_name":"Laurens","way_type":"residential","max_speed":null,"status":"open","user_ids":["51b0b927-3c8a-45b2-93de-bd878d1e5cf4","549187e0-redacted"],"label_count":16,"audit_count":0,"outdated":false,"user_count":2,"first_label_date":"2026-09-17T01:40:53.921699Z","last_label_date":"2026-09-24T23:28:45.613Z"}}]}